name,city,state,country,postal_code,latitude,longitude,line1,iata_code
Barter Island LRRS Airport,Barter Island,AK,US,99747,70.13400269,-143.5820007,Barter Island LRRS Airport,BTI
Cape Lisburne LRRS Airport,Cape Lisburne,AK,US,99766,68.87509918,-166.1100006,Cape Lisburne LRRS Airport,LUR
Point Lay LRRS Airport,Point Lay,AK,US,99759,69.73290253,-163.0050049,Point Lay LRRS Airport,PIZ
Hilo International Airport,Hilo,HI,US,96720,19.72139931,-155.0480042,Hilo International Airport,ITO
Orlando Executive Airport,Orlando,FL,US,32803,28.5454998,-81.332901,Orlando Executive Airport,ORL
Bettles Airport,Bettles,AK,US,99726,66.91390228,-151.529007,Bettles Airport,BTT
Clear Airport,Clear Mews,AK,US,99744,64.301201,-149.119995,Clear Airport,Z84
Indian Mountain LRRS Airport,Indian Mountains,AK,US,,65.99279785,-153.7039948,Indian Mountain LRRS Airport,UTO
Fort Yukon Airport,Fort Yukon,AK,US,99740,66.57150269,-145.25,Fort Yukon Airport,FYU
Sparrevohn LRRS Airport,Sparrevohn,AK,US,99557,61.09740067,-155.5740051,Sparrevohn LRRS Airport,SVW
Bryant Army Heliport,Fort Richardson,AK,US,99505,61.26639938,-149.6529999,Bryant Army Heliport,FRN
Tatalina LRRS Airport,Tatalina,AK,US,99627,62.89440155,-155.977005,Tatalina LRRS Airport,TLJ
Cape Romanzof LRRS Airport,Cape Romanzof,AK,US,99662,61.78030014,-166.0390015,Cape Romanzof LRRS Airport,CZF
Laurence G Hanscom Field,Bedford,MA,US,01730,42.47000122,-71.28900146,Laurence G Hanscom Field,BED
St Paul Island Airport,St. Paul Island,AK,US,99660,57.16730118,-170.2200012,St Paul Island Airport,SNP
Cape Newenham LRRS Airport,Cape Newenham,AK,US,99559,58.64640045,-162.0630035,Cape Newenham LRRS Airport,EHM
St George Airport,Point Barrow,AK,US,99591,56.57830048,-169.6620026,St George Airport,STG
Iliamna Airport,Iliamna,AK,US,99606,59.75439835,-154.9109955,Iliamna Airport,ILI
Platinum Airport,Port Moller,AK,US,99651,59.01139832,-161.8200073,Platinum Airport,PTU
Big Mountain Airport,Big Mountain,AK,US,99613,59.36119843,-155.2590027,Big Mountain Airport,BMX
Oscoda Wurtsmith Airport,Oscoda,MI,US,48750,44.45159912,-83.39409637,Oscoda Wurtsmith Airport,OSC
Marina Municipal Airport,Fort Ord,CA,US,93933,36.68190002,-121.762001,Marina Municipal Airport,OAR
Sacramento Mather Airport,Sacramento,CA,US,95655,38.55390167,-121.2979965,Sacramento Mather Airport,MHR
Bicycle Lake Army Air Field,Fort Irwin,CA,US,,35.2804985,-116.6299973,Bicycle Lake Army Air Field,BYS
Twentynine Palms (Self) Airport,Twenty Nine Palms,CA,US,92277,34.2961998,-116.1620026,Twentynine Palms (Self) Airport,NXP
Fort Smith Regional Airport,Fort Smith,AR,US,72903,35.33660126,-94.36740112,Fort Smith Regional Airport,FSM
Merrill Field,Anchorage,AK,US,99501,61.21350098,-149.8439941,Merrill Field,MRI
Grants-Milan Municipal Airport,Grants,NM,US,87020,35.16730118,-107.9020004,Grants-Milan Municipal Airport,GNT
Ponca City Regional Airport,Ponca City,OK,US,74601,36.73199844,-97.09980011,Ponca City Regional Airport,PNC
Hunter Army Air Field,Hunter Aaf,GA,US,31406,32.00999832,-81.14569855,Hunter Army Air Field,SVN
Grand Forks International Airport,Grand Forks,ND,US,58203,47.949299,-97.176102,Grand Forks International Airport,GFK
Grider Field,Pine Bluff,AR,US,71601,34.17309952,-91.93560028,Grider Field,PBF
Whiting Field Naval Air Station - North,Milton,FL,US,32570,30.7241993,-87.02189636,Whiting Field Naval Air Station - North,NSE
Hana Airport,Hana,HI,US,96713,20.79560089,-156.0140076,Hana Airport,HNM
Ernest A. Love Field,Prescott,AZ,US,86301,34.65449905,-112.4199982,Ernest A. Love Field,PRC
Trenton Mercer Airport,Trenton,NJ,US,08628,40.27669907,-74.81349945,Trenton Mercer Airport,TTN
General Edward Lawrence Logan International Airport,Boston,MA,US,02150,42.36429977,-71.00520325,General Edward Lawrence Logan International Airport,BOS
Travis Air Force Base,Fairfield,CA,US,94535,38.26269913,-121.927002,Travis Air Force Base,SUU
Griffiss International Airport,Rome,NY,US,13440,43.23379898,-75.40699768,Griffiss International Airport,RME
Wendover Airport,Wendover,UT,US,84083,40.71870041,-114.0309982,Wendover Airport,ENV
Mobile Downtown Airport,Mobile,AL,US,36615,30.62680054,-88.06809998,Mobile Downtown Airport,BFM
Metropolitan Oakland International Airport,Oakland,CA,US,94621,37.72129822,-122.2210007,Metropolitan Oakland International Airport,OAK
Eppley Airfield,Omaha,NE,US,68110,41.30319977,-95.89409637,Eppley Airfield,OMA
Port Angeles Cgas Airport,Port Angeles,WA,US,98362,48.14149857,-123.4140015,Port Angeles Cgas Airport,NOW
Kahului Airport,Kahului,HI,US,96779,20.89859962,-156.4299927,Kahului Airport,OGG
Wichita Mid Continent Airport,Wichita,KS,US,67209,37.64989853,-97.43309784,Wichita Mid Continent Airport,ICT
Kansas City International Airport,Kansas City,MO,US,64153,39.2976,-94.713898,Kansas City International Airport,MCI
Dane County Regional Truax Field,Madison,WI,US,53704,43.13990021,-89.33750153,Dane County Regional Truax Field,MSN
Dillingham Airport,Dillingham,AK,US,99576,59.04470062,-158.5050049,Dillingham Airport,DLG
Boone County Airport,Harrison,AR,US,72601,36.26150131,-93.15470123,Boone County Airport,HRO
Phoenix Sky Harbor International Airport,Phoenix,AZ,US,85034,33.43429947,-112.012001,Phoenix Sky Harbor International Airport,PHX
Bangor International Airport,Bangor,ME,US,04401,44.80739975,-68.82810211,Bangor International Airport,BGR
Fort Lauderdale Executive Airport,Fort Lauderdale,FL,US,33309,26.19729996,-80.17070007,Fort Lauderdale Executive Airport,FXE
East Texas Regional Airport,Longview,TX,US,75603,32.38399887,-94.71150208,East Texas Regional Airport,GGG
Anderson Regional Airport,Andersen,SC,US,29626,34.49459839,-82.70939636,Anderson Regional Airport,AND
Spokane International Airport,Spokane,WA,US,99224,47.61989975,-117.5339966,Spokane International Airport,GEG
North Perry Airport,Hollywood,FL,US,33024,26.00119972,-80.24069977,North Perry Airport,HWO
San Francisco International Airport,San Francisco,CA,US,94128,37.61899948,-122.375,San Francisco International Airport,SFO
Cut Bank International Airport,Cutbank,MT,US,59427,48.60839844,-112.3759995,Cut Bank International Airport,CTB
Acadiana Regional Airport,Louisiana,LA,US,70560,30.0378,-91.883904,Acadiana Regional Airport,ARA
Gainesville Regional Airport,Gainesville,FL,US,32609,29.69009972,-82.27179718,Gainesville Regional Airport,GNV
Memphis International Airport,Memphis,TN,US,38116,35.04240036,-89.97669983,Memphis International Airport,MEM
Bisbee Douglas International Airport,Douglas,AZ,US,85607,31.46899986,-109.6039963,Bisbee Douglas International Airport,DUG
Allen Army Airfield,Delta Junction,AK,US,99731,63.99449921,-145.7220001,Allen Army Airfield,BIG
TSTC Waco Airport,Waco,TX,US,76705,31.63780022,-97.07409668,TSTC Waco Airport,CNW
Annette Island Airport,Annette Island,AK,US,99926,55.04240036,-131.5720062,Annette Island Airport,ANN
Caribou Municipal Airport,Caribou,ME,US,04736,46.87149811,-68.01789856,Caribou Municipal Airport,CAR
Little Rock Air Force Base,Jacksonville,AR,US,72076,34.91690063,-92.14969635,Little Rock Air Force Base,LRF
Redstone Army Air Field,Redstone,AL,US,35808,34.67869949,-86.68479919,Redstone Army Air Field,HUA
Pope Field,Fort Bragg,NC,US,28308,35.17089844,-79.01450348,Pope Field,POB
Dalhart Municipal Airport,Dalhart,TX,US,79022,36.02259827,-102.5469971,Dalhart Municipal Airport,DHT
Laughlin Air Force Base,Del Rio,TX,US,78843,29.35950089,-100.7779999,Laughlin Air Force Base,DLF
Los Angeles International Airport,Los Angeles,CA,US,90045,33.94250107,-118.4079971,Los Angeles International Airport,LAX
Anniston Metropolitan Airport,Anniston,AL,US,36203,33.58819962,-85.85810089,Anniston Metropolitan Airport,ANB
Cleveland Hopkins International Airport,Cleveland,OH,US,44135,41.4117012,-81.84980011,Cleveland Hopkins International Airport,CLE
Dover Air Force Base,Dover,DE,US,19902,39.12950134,-75.46600342,Dover Air Force Base,DOV
Cincinnati Northern Kentucky International Airport,Cincinnati,KY,US,41048,39.04880142,-84.6678009,Cincinnati Northern Kentucky International Airport,CVG
Tipton Airport,Fort Meade,MD,US,20724,39.08539963,-76.75939941,Tipton Airport,FME
China Lake Naws (Armitage Field) Airport,China Lake,CA,US,93555,35.6853981,-117.6920013,China Lake Naws (Armitage Field) Airport,NID
Huron Regional Airport,Huron,SD,US,57350,44.3852005,-98.22850037,Huron Regional Airport,HON
Juneau International Airport,Juneau,AK,US,99801,58.35499954,-134.576004,Juneau International Airport,JNU
Lafayette Regional Airport,Lafayette,LA,US,70508,30.20529938,-91.98760223,Lafayette Regional Airport,LFT
Newark Liberty International Airport,Newark,NJ,US,07201,40.69250107,-74.16870117,Newark Liberty International Airport,EWR
Boise Air Terminal/Gowen field,Boise,ID,US,83705,43.56439972,-116.2229996,Boise Air Terminal/Gowen field,BOI
Creech Air Force Base,Indian Springs,NV,US,89018,36.58720016,-115.6729965,Creech Air Force Base,INS
Garden City Regional Airport,Garden City,KS,US,67846,37.92750168,-100.723999,Garden City Regional Airport,GCK
Minot International Airport,Minot,ND,US,58703,48.25939941,-101.2799988,Minot International Airport,MOT
Wheeler Army Airfield,Wahiawa,HI,US,96786,21.48349953,-158.0399933,Wheeler Army Airfield,HHI
Maxwell Air Force Base,Montgomery,AL,US,36112,32.38290024,-86.36579895,Maxwell Air Force Base,MXF
Robinson Army Air Field,Robinson,AR,US,72118,34.85010147,-92.30020142,Robinson Army Air Field,\N
Dallas Love Field,Dallas,TX,US,75235,32.8470993,-96.85179901,Dallas Love Field,DAL
Butts AAF (Fort Carson) Air Field,Fort Carson,CO,US,80913,38.67839813,-104.7570038,Butts AAF (Fort Carson) Air Field,FCS
Helena Regional Airport,Helena,MT,US,59602,46.60680008,-111.9830017,Helena Regional Airport,HLN
Miramar Marine Corps Air Station - Mitscher Field,Miramar,CA,US,92145,32.86840057,-117.1429977,Miramar Marine Corps Air Station - Mitscher Field,NKX
Luke Air Force Base,Phoenix,AZ,US,85309,33.53499985,-112.3830032,Luke Air Force Base,LUF
Hurlburt Field,Mary Esther,FL,US,32544,30.42779922,-86.68930054,Hurlburt Field,\N
Jack Northrop Field Hawthorne Municipal Airport,Hawthorne,CA,US,90250,33.922798,-118.334999,Jack Northrop Field Hawthorne Municipal Airport,HHR
Houlton International Airport,Houlton,ME,US,04730,46.12310028,-67.792099,Houlton International Airport,HUL
Vance Air Force Base,Enid,OK,US,73703,36.33919907,-97.91649628,Vance Air Force Base,END
Point Mugu Naval Air Station (Naval Base Ventura Co),Point Mugu,CA,US,93033,34.12030029,-119.1210022,Point Mugu Naval Air Station (Naval Base Ventura Co),NTD
Edwards Air Force Base,Edwards Afb,CA,US,93523,34.905399,-117.884003,Edwards Air Force Base,EDW
Lake Charles Regional Airport,Lake Charles,LA,US,70607,30.12610054,-93.22329712,Lake Charles Regional Airport,LCH
Kona International At Keahole Airport,Kona,HI,US,96740,19.73880005,-156.0460052,Kona International At Keahole Airport,KOA
Myrtle Beach International Airport,Myrtle Beach,SC,US,29577,33.67969894,-78.92829895,Myrtle Beach International Airport,MYR
Lemoore Naval Air Station (Reeves Field) Airport,Lemoore,CA,US,93245,36.33300018,-119.9520035,Lemoore Naval Air Station (Reeves Field) Airport,NLC
Nantucket Memorial Airport,Nantucket,MA,US,02554,41.25310135,-70.06020355,Nantucket Memorial Airport,ACK
Felker Army Air Field,Fort Eustis,VA,US,23604,37.13249969,-76.6088028,Felker Army Air Field,FAF
Campbell AAF (Fort Campbell) Air Field,Hopkinsville,KY,US,42262,36.66859818,-87.49620056,Campbell AAF (Fort Campbell) Air Field,HOP
Ronald Reagan Washington National Airport,Washington,VA,US,22202,38.8521,-77.037697,Ronald Reagan Washington National Airport,DCA
Patuxent River Naval Air Station/Trapnell Field Aiport,Patuxent River,MD,US,20670,38.2859993,-76.41179657,Patuxent River Naval Air Station/Trapnell Field Aiport,NHK
Palacios Municipal Airport,Palacios,TX,US,77465,28.72750092,-96.25099945,Palacios Municipal Airport,PSX
Arkansas International Airport,Blytheville,AR,US,72315,35.96429825,-89.94400024,Arkansas International Airport,BYH
Atlantic City International Airport,Atlantic City,NJ,US,08215,39.45759964,-74.57720184,Atlantic City International Airport,ACY
Tinker Air Force Base,Oklahoma City,OK,US,73145,35.41469955,-97.38659668,Tinker Air Force Base,TIK
Pueblo Memorial Airport,Pueblo,CO,US,81001,38.28910065,-104.4970016,Pueblo Memorial Airport,PUB
Northern Maine Regional Airport at Presque Isle,Presque Isle,ME,US,04769,46.68899918,-68.0447998,Northern Maine Regional Airport at Presque Isle,PQI
Gray Army Air Field,Fort Lewis,WA,US,98433,47.07920074,-122.5810013,Gray Army Air Field,GRF
Kodiak Airport,Kodiak,AK,US,99615,57.75,-152.4940033,Kodiak Airport,ADQ
Upolu Airport,Opolu,HI,US,96719,20.26530075,-155.8600006,Upolu Airport,UPP
Fort Lauderdale Hollywood International Airport,Fort Lauderdale,FL,US,33315,26.07259941,-80.15270233,Fort Lauderdale Hollywood International Airport,FLL
Davis Field,Muskogee,OK,US,74403,35.65650177,-95.36669922,Davis Field,MKO
Falls International Airport,International Falls,MN,US,56649,48.56620026,-93.40309906,Falls International Airport,INL
Salt Lake City International Airport,Salt Lake City,UT,US,84122,40.78839874,-111.9779968,Salt Lake City International Airport,SLC
Childress Municipal Airport,Childress,TX,US,79201,34.43379974,-100.288002,Childress Municipal Airport,CDS
Keesler Air Force Base,Biloxi,MS,US,39534,30.41040039,-88.92440033,Keesler Air Force Base,BIX
Lawson Army Air Field (Fort Benning),Fort Benning,GA,US,31905,32.33729935,-84.99130249,Lawson Army Air Field (Fort Benning),LSF
Marshall Army Air Field,Fort Riley,KS,US,66442,39.05530167,-96.76450348,Marshall Army Air Field,FRI
Harrisburg International Airport,Harrisburg,PA,US,17057,40.19350052,-76.76339722,Harrisburg International Airport,MDT
Lincoln Airport,Lincoln,NE,US,68524,40.85100174,-96.75920105,Lincoln Airport,LNK
Capital City Airport,Lansing,MI,US,48906,42.77870178,-84.58740234,Capital City Airport,LAN
Waimea Kohala Airport,Kamuela,HI,US,96743,20.00130081,-155.6679993,Waimea Kohala Airport,MUE
Massena International Richards Field,Massena,NY,US,13662,44.93579865,-74.84559631,Massena International Richards Field,MSS
Hickory Regional Airport,Hickory,NC,US,28601,35.74110031,-81.38950348,Hickory Regional Airport,HKY
Albert Whitted Airport,St. Petersburg,FL,US,33701,27.76510048,-82.6269989,Albert Whitted Airport,SPG
Page Field,Fort Myers,FL,US,33907,26.58659935,-81.86329651,Page Field,FMY
George Bush Intercontinental Houston Airport,Houston,TX,US,77032,29.9843998,-95.34140015,George Bush Intercontinental Houston Airport,IAH
Millinocket Municipal Airport,Millinocket,ME,US,04462,45.64780045,-68.68560028,Millinocket Municipal Airport,MLT
Andrews Air Force Base,Camp Springs,MD,US,20762,38.81079865,-76.86699677,Andrews Air Force Base,ADW
Smith Reynolds Airport,Winston-salem,NC,US,27105,36.13370132,-80.22200012,Smith Reynolds Airport,INT
Southern California Logistics Airport,Victorville,CA,US,92394,34.59749985,-117.3830032,Southern California Logistics Airport,VCV
Bob Sikes Airport,Crestview,FL,US,32539,30.77879906,-86.52210236,Bob Sikes Airport,CEW
Wheeler Sack Army Air Field,Fort Drum,NY,US,13603,44.05559921,-75.71949768,Wheeler Sack Army Air Field,GTB
St Clair County International Airport,Port Huron,MI,US,48074,42.9109993,-82.52890015,St Clair County International Airport,PHN
Meadows Field,Bakersfield,CA,US,93308,35.43360138,-119.0569992,Meadows Field,BFL
El Paso International Airport,El Paso,TX,US,79925,31.80719948,-106.3779984,El Paso International Airport,ELP
Valley International Airport,Harlingen,TX,US,78550,26.22850037,-97.65440369,Valley International Airport,HRL
Columbia Metropolitan Airport,Columbia,SC,US,29170,33.93880081,-81.11949921,Columbia Metropolitan Airport,CAE
Davis Monthan Air Force Base,Tucson,AZ,US,85707,32.16650009,-110.8830032,Davis Monthan Air Force Base,DMA
Pensacola Naval Air Station/Forrest Sherman Field,Pensacola,FL,US,32508,30.35269928,-87.31860352,Pensacola Naval Air Station/Forrest Sherman Field,NPA
Pensacola Regional Airport,Pensacola,FL,US,32504,30.47340012,-87.18659973,Pensacola Regional Airport,PNS
Grand Forks Air Force Base,Red River,ND,US,58214,47.96110153,-97.40119934,Grand Forks Air Force Base,RDR
William P Hobby Airport,Houston,TX,US,77061,29.64539909,-95.27890015,William P Hobby Airport,HOU
Buckley Air Force Base,Buckley,CO,US,80018,39.7016983,-104.7519989,Buckley Air Force Base,BKF
Northway Airport,Northway,AK,US,99764,62.9612999,-141.9290009,Northway Airport,ORT
Palmer Municipal Airport,Palmer,AK,US,99645,61.59489822,-149.0890045,Palmer Municipal Airport,PAQ
Pittsburgh International Airport,Pittsburgh,PA,US,15108,40.49150085,-80.23290253,Pittsburgh International Airport,PIT
Wiley Post Will Rogers Memorial Airport,Barrow,AK,US,99723,71.285402,-156.766008,Wiley Post Will Rogers Memorial Airport,BRW
Ellington Airport,Houston,TX,US,77034,29.6072998,-95.15879822,Ellington Airport,EFD
Whidbey Island Naval Air Station /Ault Field/ Airport,Whidbey Island,WA,US,98277,48.35179901,-122.6559982,Whidbey Island Naval Air Station /Ault Field/ Airport,NUW
Alice International Airport,Alice,TX,US,78332,27.74090004,-98.02690125,Alice International Airport,ALI
Moody Air Force Base,Valdosta,GA,US,31699,30.96780014,-83.19300079,Moody Air Force Base,VAD
Miami International Airport,Miami,FL,US,33126,25.79319954,-80.29060364,Miami International Airport,MIA
Seattle Tacoma International Airport,Seattle,WA,US,98158,47.44900131,-122.3089981,Seattle Tacoma International Airport,SEA
Lovell Field,Chattanooga,TN,US,37421,35.03530121,-85.20379639,Lovell Field,CHA
Igor I Sikorsky Memorial Airport,Stratford,CT,US,06615,41.16350174,-73.12619781,Igor I Sikorsky Memorial Airport,BDR
Jackson-Medgar Wiley Evers International Airport,Jackson,MS,US,39208,32.31119919,-90.07589722,Jackson-Medgar Wiley Evers International Airport,JAN
Scholes International At Galveston Airport,Galveston,TX,US,77554,29.26530075,-94.86039734,Scholes International At Galveston Airport,GLS
Long Beach /Daugherty Field/ Airport,Long Beach,CA,US,90807,33.81769943,-118.1520004,Long Beach /Daugherty Field/ Airport,LGB
Dillingham Airfield,Dillingham,HI,US,96791,21.5795002,-158.1970062,Dillingham Airfield,HDH
Williamsport Regional Airport,Williamsport,PA,US,17754,41.2417984,-76.9210968,Williamsport Regional Airport,IPT
Indianapolis International Airport,Indianapolis,IN,US,46241,39.7173,-86.294403,Indianapolis International Airport,IND
Whiteman Air Force Base,Knobnoster,MO,US,65336,38.7303009,-93.54789734,Whiteman Air Force Base,SZL
Akron Fulton International Airport,Akron,OH,US,44306,41.03749847,-81.46690369,Akron Fulton International Airport,AKC
GreenwoodðððLeflore Airport,Greenwood,MS,US,38930,33.49430084,-90.08470154,GreenwoodðððLeflore Airport,GWO
Westchester County Airport,White Plains,NY,US,10604,41.06700134,-73.70760345,Westchester County Airport,HPN
Francis S Gabreski Airport,West Hampton Beach,NY,US,11977,40.84370041,-72.63179779,Francis S Gabreski Airport,FOK
Jonesboro Municipal Airport,Jonesboro,AR,US,72401,35.83169937,-90.64640045,Jonesboro Municipal Airport,JBR
Tonopah Test Range Airport,Tonopah,Nevada,US,,37.79880142,-116.7809982,Tonopah Test Range Airport,\N
Palm Beach County Park Airport,West Palm Beach,FL,US,33462,26.59300041,-80.08509827,Palm Beach County Park Airport,LNA
North Island Naval Air Station-Halsey Field,San Diego,CA,US,92118,32.69919968,-117.2149963,North Island Naval Air Station-Halsey Field,NZY
Biggs Army Air Field (Fort Bliss),El Paso,TX,US,79918,31.84950066,-106.3799973,Biggs Army Air Field (Fort Bliss),BIF
Yuma MCAS/Yuma International Airport,Yuma,AZ,US,85365,32.65660095,-114.6060028,Yuma MCAS/Yuma International Airport,YUM
Cavern City Air Terminal,Carlsbad,NM,US,88220,32.33750153,-104.2630005,Cavern City Air Terminal,CNM
Duluth International Airport,Duluth,MN,US,55811,46.84209824,-92.19360352,Duluth International Airport,DLH
Bethel Airport,Bethel,AK,US,99559,60.77980042,-161.8379974,Bethel Airport,BET
Bowman Field,Louisville,KY,US,40205,38.22800064,-85.66369629,Bowman Field,LOU
Sierra Vista Municipal Libby Army Air Field,Fort Huachuca,AZ,US,85613,31.58849907,-110.3440018,Sierra Vista Municipal Libby Army Air Field,FHU
Lihue Airport,Lihue,HI,US,96766,21.97599983,-159.3390045,Lihue Airport,LIH
Terre Haute International Hulman Field,Terre Haute,IN,US,47803,39.45149994,-87.30760193,Terre Haute International Hulman Field,HUF
Havre City County Airport,Havre,MT,US,59501,48.54299927,-109.762001,Havre City County Airport,HVR
Grant County International Airport,Grant County Airport,WA,US,98837,47.20769882,-119.3199997,Grant County International Airport,MWH
Edward F Knapp State Airport,Montpelier,VT,US,05641,44.20349884,-72.56230164,Edward F Knapp State Airport,MPV
San Nicolas Island Nolf Airport,San Nicolas Island,CA,US,93042,33.2397995,-119.4580002,San Nicolas Island Nolf Airport,\N
Richmond International Airport,Richmond,VA,US,23250,37.50519943,-77.31970215,Richmond International Airport,RIC
Shreveport Regional Airport,Shreveport,LA,US,71109,32.44660187,-93.82559967,Shreveport Regional Airport,SHV
Merle K (Mudhole) Smith Airport,Cordova,AK,US,99574,60.4917984,-145.4779968,Merle K (Mudhole) Smith Airport,CDV
Norfolk International Airport,Norfolk,VA,US,23518,36.89459991,-76.20120239,Norfolk International Airport,ORF
Southeast Texas Regional Airport,Beaumont,TX,US,77705,29.95079994,-94.02069855,Southeast Texas Regional Airport,BPT
Savannah Hilton Head International Airport,Savannah,GA,US,31408,32.12760162,-81.20210266,Savannah Hilton Head International Airport,SAV
Hill Air Force Base,Ogden,UT,US,84056,41.12403,-111.973086,Hill Air Force Base,HIF
Nome Airport,Nome,AK,US,99762,64.5121994,-165.4450073,Nome Airport,OME
Scappoose Industrial Airpark,San Luis,OR,US,97056,45.77099991,-122.8619995,Scappoose Industrial Airpark,\N
St Petersburg Clearwater International Airport,St. Petersburg,FL,US,33762,27.91020012,-82.68740082,St Petersburg Clearwater International Airport,PIE
Menominee Marinette Twin County Airport,Macon,MI,US,49858,45.12670135,-87.63839722,Menominee Marinette Twin County Airport,MNM
Lone Star Executive Airport,Conroe,TX,US,77303,30.35180092,-95.41449738,Lone Star Executive Airport,CXO
Deadhorse Airport,Deadhorse,AK,US,99734,70.19470215,-148.4649963,Deadhorse Airport,SCC
San Antonio International Airport,San Antonio,TX,US,78216,29.53370094,-98.46980286,San Antonio International Airport,SAT
Greater Rochester International Airport,Rochester,NY,US,14624,43.1189003,-77.67240143,Greater Rochester International Airport,ROC
Patrick Air Force Base,Coco Beach,FL,US,32925,28.23489952,-80.61009979,Patrick Air Force Base,COF
Teterboro Airport,Teterboro,NJ,US,07608,40.85010147,-74.06079865,Teterboro Airport,TEB
Ellsworth Air Force Base,Rapid City,SD,US,57769,44.14500046,-103.1039963,Ellsworth Air Force Base,RCA
Raleigh Durham International Airport,Raleigh-durham,NC,US,27560,35.87760162,-78.78749847,Raleigh Durham International Airport,RDU
James M Cox Dayton International Airport,Dayton,OH,US,45377,39.90240097,-84.2193985,James M Cox Dayton International Airport,DAY
Kenai Municipal Airport,Kenai,AK,US,99611,60.57310104,-151.2449951,Kenai Municipal Airport,ENA
Mc Alester Regional Airport,Mcalester,OK,US,74501,34.88240051,-95.78350067,Mc Alester Regional Airport,MLC
Niagara Falls International Airport,Niagara Falls,NY,US,14304,43.1072998,-78.94619751,Niagara Falls International Airport,IAG
Coulter Field,Bryan,TX,US,77808,30.71570015,-96.33139801,Coulter Field,CFD
Wright Aaf (Fort Stewart)/Midcoast Regional Airport,Wright,GA,US,31313,31.88909912,-81.56230164,Wright Aaf (Fort Stewart)/Midcoast Regional Airport,\N
Newport News Williamsburg International Airport,Newport News,VA,US,23602,37.13190079,-76.49299622,Newport News Williamsburg International Airport,PHF
Esler Regional Airport,Alexandria,LA,US,71360,31.39489937,-92.29579926,Esler Regional Airport,ESF
Altus Air Force Base,Altus,OK,US,73521,34.667099,-99.26670074,Altus Air Force Base,LTS
Tucson International Airport,Tucson,AZ,US,85756,32.11610031,-110.9410019,Tucson International Airport,TUS
Minot Air Force Base,Minot,ND,US,58704,48.41559982,-101.3580017,Minot Air Force Base,MIB
Beale Air Force Base,Marysville,CA,US,95903,39.13610077,-121.4369965,Beale Air Force Base,BAB
Greater Kankakee Airport,Kankakee,IL,US,60901,41.07139969,-87.84629822,Greater Kankakee Airport,IKK
Seymour Johnson Air Force Base,Goldsboro,NC,US,27531,35.33940125,-77.96060181,Seymour Johnson Air Force Base,GSB
Theodore Francis Green State Airport,Providence,RI,US,02888,41.73260117,-71.42040253,Theodore Francis Green State Airport,PVD
Salisbury Ocean City Wicomico Regional Airport,Salisbury,MD,US,21804,38.34049988,-75.51029968,Salisbury Ocean City Wicomico Regional Airport,SBY
Rancho Murieta Airport,Rancho Murieta,CA,US,95683,38.48680115,-121.1029968,Rancho Murieta Airport,RIU
Bob Hope Airport,Burbank,CA,US,91505,34.20069885,-118.3590012,Bob Hope Airport,BUR
Detroit Metropolitan Wayne County Airport,Detroit,MI,US,48174,42.21239853,-83.35340118,Detroit Metropolitan Wayne County Airport,DTW
Tampa International Airport,Tampa,FL,US,33614,27.97550011,-82.53320313,Tampa International Airport,TPA
Pembina Municipal Airport,Pembina,ND,US,58271,48.94250107,-97.24079895,Pembina Municipal Airport,PMB
Polk Army Air Field,Fort Polk,LA,US,70656,31.0447998,-93.1917038,Polk Army Air Field,POE
Eielson Air Force Base,Fairbanks,AK,US,99702,64.66570282,-147.102005,Eielson Air Force Base,EIL
Range Regional Airport,Hibbing,MN,US,55746,47.38660049,-92.83899689,Range Regional Airport,HIB
Angelina County Airport,Lufkin,TX,US,75941,31.23399925,-94.75,Angelina County Airport,LFK
Midland International Airport,Midland,TX,US,79706,31.94249916,-102.2020035,Midland International Airport,MAF
Ardmore Municipal Airport,Ardmore,OK,US,73401,34.30301,-97.0196342,Ardmore Municipal Airport,ADM
Mc Guire Air Force Base,Wrightstown,NJ,US,08641,40.0155983,-74.59169769,Mc Guire Air Force Base,WRI
Cherry Point MCAS /Cunningham Field/,Cherry Point,NC,US,28532,34.90090179,-76.88069916,Cherry Point MCAS /Cunningham Field/,\N
Emanuel County Airport,Santa Barbara,GA,US,30401,32.60910034,-82.36990356,Emanuel County Airport,SBO
Augusta Regional At Bush Field,Bush Field,GA,US,30906,33.36989975,-81.96450043,Augusta Regional At Bush Field,AGS
Sloulin Field International Airport,Williston,ND,US,58801,48.17789841,-103.6419983,Sloulin Field International Airport,ISN
Bill & Hillary Clinton National Airport/Adams Field,Little Rock,AR,US,72202,34.72940063,-92.22429657,Bill & Hillary Clinton National Airport/Adams Field,LIT
Stewart International Airport,Newburgh,NY,US,12553,41.5041008,-74.10479736,Stewart International Airport,SWF
Baudette International Airport,Baudette,MN,US,56623,48.72840118,-94.61219788,Baudette International Airport,BDE
Sacramento Executive Airport,Sacramento,CA,US,95822,38.51250076,-121.4929962,Sacramento Executive Airport,SAC
Homer Airport,Homer,AK,US,99603,59.64559937,-151.477005,Homer Airport,HOM
Waynesville-St. Robert Regional Forney field,Fort Leonardwood,MO,US,65473,37.74160004,-92.14070129,Waynesville-St. Robert Regional Forney field,TBN
Dobbins Air Reserve Base,Marietta,GA,US,30069,33.91540146,-84.51629639,Dobbins Air Reserve Base,MGE
Fairchild Air Force Base,Spokane,WA,US,99011,47.61510086,-117.6559982,Fairchild Air Force Base,SKA
Roscommon County - Blodgett Memorial Airport,Houghton Lake,MI,US,48629,44.359798,-84.671095,Roscommon County - Blodgett Memorial Airport,HTL
Tyndall Air Force Base,Panama City,FL,US,32403,30.06959915,-85.57540131,Tyndall Air Force Base,PAM
Dallas Fort Worth International Airport,Dallas-Fort Worth,TX,US,75261,32.89680099,-97.03800201,Dallas Fort Worth International Airport,DFW
Melbourne International Airport,Melbourne,FL,US,32901,28.10280037,-80.64530182,Melbourne International Airport,MLB
McChord Air Force Base,Tacoma,WA,US,98438,47.13769913,-122.4759979,McChord Air Force Base,TCM
Austin Bergstrom International Airport,Austin,TX,US,78719,30.19449997,-97.66989899,Austin Bergstrom International Airport,AUS
Rickenbacker International Airport,Columbus,OH,US,43217,39.813801,-82.927803,Rickenbacker International Airport,LCK
Sawyer International Airport,Gwinn,MI,US,49841,46.35359955,-87.395401,Sawyer International Airport,MQT
McGhee Tyson Airport,Knoxville,TN,US,37701,35.81100082,-83.9940033,McGhee Tyson Airport,TYS
Hood Army Air Field,Fort Hood,TX,US,76544,31.13870049,-97.71450043,Hood Army Air Field,HLR
Lambert St Louis International Airport,St. Louis,MO,US,63145,38.74869919,-90.37000275,Lambert St Louis International Airport,STL
Millville Municipal Airport,Millville,NJ,US,08332,39.36780167,-75.07219696,Millville Municipal Airport,MIV
Sheppard Air Force Base-Wichita Falls Municipal Airport,Wichita Falls,TX,US,76311,33.98880005,-98.49189758,Sheppard Air Force Base-Wichita Falls Municipal Airport,SPS
Cincinnati Municipal Airport Lunken Field,Cincinnati,OH,US,45226,39.10329819,-84.41860199,Cincinnati Municipal Airport Lunken Field,LUK
Hartsfield Jackson Atlanta International Airport,Atlanta,GA,US,30337,33.63669968,-84.42810059,Hartsfield Jackson Atlanta International Airport,ATL
Castle Airport,Merced,CA,US,95301,37.38050079,-120.5680008,Castle Airport,MER
Mc Clellan Airfield,Sacramento,CA,US,95652,38.66759872,-121.401001,Mc Clellan Airfield,MCC
Gerald R. Ford International Airport,Grand Rapids,MI,US,49512,42.88079834,-85.52279663,Gerald R. Ford International Airport,GRR
Winkler County Airport,Wink,TX,US,79789,31.77960014,-103.2009964,Winkler County Airport,INK
Fresno Yosemite International Airport,Fresno,CA,US,93727,36.77619934,-119.7180023,Fresno Yosemite International Airport,FAT
Vero Beach Municipal Airport,Vero Beach,FL,US,32960,27.65559959,-80.41790009,Vero Beach Municipal Airport,VRB
Imperial County Airport,Imperial,CA,US,92251,32.83420181,-115.5790024,Imperial County Airport,IPL
Nashville International Airport,Nashville,TN,US,37217,36.12450027,-86.67819977,Nashville International Airport,BNA
Laredo International Airport,Laredo,TX,US,78041,27.54380035,-99.46160126,Laredo International Airport,LRD
Elmendorf Air Force Base,Anchorage,AK,US,99506,61.25099945,-149.8070068,Elmendorf Air Force Base,EDF
Ralph Wien Memorial Airport,Kotzebue,AK,US,99752,66.88469696,-162.598999,Ralph Wien Memorial Airport,OTZ
Altoona Blair County Airport,Altoona,PA,US,16662,40.29639816,-78.31999969,Altoona Blair County Airport,AOO
Dyess Air Force Base,Abilene,TX,US,79563,32.42079926,-99.854599,Dyess Air Force Base,DYS
South Arkansas Regional At Goodwin Field,El Dorado,AR,US,71730,33.22100067,-92.81330109,South Arkansas Regional At Goodwin Field,ELD
La Guardia Airport,New York,NY,US,11371,40.77719879,-73.87259674,La Guardia Airport,LGA
Tallahassee Regional Airport,Tallahassee,FL,US,32310,30.39649963,-84.35030365,Tallahassee Regional Airport,TLH
Dupage Airport,West Chicago,IL,US,60185,41.90779877,-88.24859619,Dupage Airport,DPA
Waco Regional Airport,Waco,TX,US,76708,31.61129951,-97.23049927,Waco Regional Airport,ACT
Augusta State Airport,Augusta,ME,US,04330,44.3205986,-69.79730225,Augusta State Airport,AUG
Hillsboro Municipal Airport,Hillsboro,TX,US,76645,32.08349991,-97.09719849,Hillsboro Municipal Airport,INJ
Mc Kellar Sipes Regional Airport,Jackson,TN,US,38301,35.59989929,-88.91560364,Mc Kellar Sipes Regional Airport,MKL
Molokai Airport,Molokai,HI,US,96729,21.1529007,-157.095993,Molokai Airport,MKK
Godman Army Air Field,Fort Knox,KY,US,40121,37.90710068,-85.9720993,Godman Army Air Field,FTK
New River MCAS /H/ /Mccutcheon Fld/ Airport,Jacksonville,NC,US,28540,34.70840073,-77.43969727,New River MCAS /H/ /Mccutcheon Fld/ Airport,\N
San Angelo Regional Mathis Field,San Angelo,TX,US,76904,31.35770035,-100.4960022,San Angelo Regional Mathis Field,SJT
Calexico International Airport,Calexico,CA,US,92231,32.66949844,-115.5130005,Calexico International Airport,CXL
Chico Municipal Airport,Chico,CA,US,95973,39.79539871,-121.8580017,Chico Municipal Airport,CIC
Burlington International Airport,Burlington,VT,US,05403,44.47190094,-73.15329742,Burlington International Airport,BTV
Jacksonville International Airport,Jacksonville,FL,US,32218,30.49410057,-81.68789673,Jacksonville International Airport,JAX
Durango La Plata County Airport,Durango,CO,US,81303,37.1515007,-107.7539978,Durango La Plata County Airport,DRO
Washington Dulles International Airport,Washington,VA,US,20151,38.94449997,-77.45580292,Washington Dulles International Airport,IAD
Easterwood Field,College Station,TX,US,77845,30.58860016,-96.36380005,Easterwood Field,CLL
Felts Field,Spokane,WA,US,99212,47.68280029,-117.322998,Felts Field,SFF
General Mitchell International Airport,Milwaukee,WI,US,53207,42.94720078,-87.89659882,General Mitchell International Airport,MKE
Abilene Regional Airport,Abilene,TX,US,79602,32.41130066,-99.68190002,Abilene Regional Airport,ABI
Columbia Regional Airport,Columbia,MO,US,65201,38.81809998,-92.21959686,Columbia Regional Airport,COU
Portland International Airport,Portland,OR,US,97218,45.58869934,-122.5979996,Portland International Airport,PDX
Dade Collier Training and Transition Airport,Miami,FL,US,34141,25.86179924,-80.89700317,Dade Collier Training and Transition Airport,TNT
Palm Beach International Airport,West Palm Beach,FL,US,33406,26.68320084,-80.09559631,Palm Beach International Airport,PBI
Fort Worth Meacham International Airport,Fort Worth,TX,US,76106,32.81980133,-97.36239624,Fort Worth Meacham International Airport,FTW
Ogdensburg International Airport,Ogdensburg,NY,US,13669,44.68190002,-75.46549988,Ogdensburg International Airport,OGS
Boeing Field King County International Airport,Seattle,WA,US,98108,47.52999878,-122.302002,Boeing Field King County International Airport,BFI
Lackland Air Force Base,San Antonio,TX,US,78243,29.38419914,-98.58110046,Lackland Air Force Base,SKF
Honolulu International Airport,Honolulu,HI,US,96819,21.31870079,-157.9219971,Honolulu International Airport,HNL
Des Moines International Airport,Des Moines,IA,US,50321,41.5340004,-93.6631012,Des Moines International Airport,DSM
Coastal Carolina Regional Airport,New Bern,NC,US,28562,35.07300186,-77.04290009,Coastal Carolina Regional Airport,EWN
Monroe Regional Airport,Monroe,LA,US,71203,32.51089859,-92.03769684,Monroe Regional Airport,MLU
Shaw Air Force Base,Sumter,SC,US,29152,33.97269821,-80.47059631,Shaw Air Force Base,SSC
Ontario International Airport,Ontario,CA,US,91761,34.05599976,-117.6009979,Ontario International Airport,ONT
Majors Airport,Greenvile,TX,US,75402,33.06779861,-96.06529999,Majors Airport,GVT
Roswell International Air Center Airport,Roswell,NM,US,88203,33.30160141,-104.5309982,Roswell International Air Center Airport,ROW
Coleman A. Young Municipal Airport,Detroit,MI,US,48234,42.40919876,-83.00990295,Coleman A. Young Municipal Airport,DET
Brownsville South Padre Island International Airport,Brownsville,TX,US,78521,25.90679932,-97.42590332,Brownsville South Padre Island International Airport,BRO
Dothan Regional Airport,Dothan,AL,US,36350,31.32130051,-85.44960022,Dothan Regional Airport,DHN
Cape May County Airport,Wildwood,NJ,US,08242,39.00849915,-74.90830231,Cape May County Airport,WWD
Selfridge Angb Airport,Mount Clemens,MI,US,48045,42.60829926,-82.83550262,Selfridge Angb Airport,MTC
Four Corners Regional Airport,Farmington,NM,US,87401,36.74119949,-108.2300034,Four Corners Regional Airport,FMN
Corpus Christi International Airport,Corpus Christi,TX,US,78406,27.77039909,-97.50119781,Corpus Christi International Airport,CRP
Syracuse Hancock International Airport,Syracuse,NY,US,13212,43.11119843,-76.10630035,Syracuse Hancock International Airport,SYR
Naval Air Station Key West/Boca Chica Field,Key West,FL,US,33040,24.57579994,-81.68890381,Naval Air Station Key West/Boca Chica Field,NQX
Chicago Midway International Airport,Chicago,IL,US,60638,41.7859993,-87.75240326,Chicago Midway International Airport,MDW
Norman Y. Mineta San Jose International Airport,San Jose,CA,US,95050,37.36259842,-121.9290009,Norman Y. Mineta San Jose International Airport,SJC
Lea County Regional Airport,Hobbs,NM,US,88240,32.6875,-103.2170029,Lea County Regional Airport,HOB
Northeast Philadelphia Airport,Philadelphia,PA,US,19114,40.08190155,-75.01059723,Northeast Philadelphia Airport,PNE
Denver International Airport,Denver,CO,US,80249,39.86169815,-104.6729965,Denver International Airport,DEN
Philadelphia International Airport,Philadelphia,PA,US,19153,39.87189865,-75.2410965,Philadelphia International Airport,PHL
Sioux Gateway Col. Bud Day Field,Sioux City,IA,US,51111,42.40259933,-96.38439941,Sioux Gateway Col. Bud Day Field,SUX
Middle Georgia Regional Airport,Macon,GA,US,31216,32.69279861,-83.64920044,Middle Georgia Regional Airport,MCN
Truth Or Consequences Municipal Airport,Truth Or Consequences,NM,US,87935,33.23690033,-107.2720032,Truth Or Consequences Municipal Airport,TCS
Palmdale Regional/USAF Plant 42 Airport,Palmdale,CA,US,93550,34.62939835,-118.0849991,Palmdale Regional/USAF Plant 42 Airport,PMD
Randolph Air Force Base,San Antonio,TX,US,78148,29.52969933,-98.27890015,Randolph Air Force Base,RND
El Centro Naf Airport,El Centro,CA,US,92243,32.82920074,-115.6719971,El Centro Naf Airport,NJK
Port Columbus International Airport,Columbus,OH,US,43219,39.9980011,-82.89189911,Port Columbus International Airport,CMH
Drake Field,Fayetteville,AR,US,72701,36.00510025,-94.17009735,Drake Field,FYV
Henry Post Army Air Field (Fort Sill),Fort Sill,OK,US,73503,34.64979935,-98.40219879,Henry Post Army Air Field (Fort Sill),FSI
Princeton Municipal Airport,Princeton,MN,US,55371,45.55989838,-93.60820007,Princeton Municipal Airport,PNM
Wright-Patterson Air Force Base,Dayton,OH,US,45433,39.8260994,-84.0483017,Wright-Patterson Air Force Base,FFO
Edward G. Pitka Sr Airport,Galena,AK,US,99741,64.73619843,-156.9369965,Edward G. Pitka Sr Airport,GAL
Chandler Municipal Airport,Chandler,AZ,US,85286,33.2691,-111.810997,Chandler Municipal Airport,\N
Mineral Wells Airport,Mineral Wells,TX,US,76067,32.78160095,-98.06020355,Mineral Wells Airport,MWL
Mc Connell Air Force Base,Wichita,KS,US,67210,37.62189865,-97.26820374,Mc Connell Air Force Base,IAB
New Orleans NAS JRB/Alvin Callender Field,New Orleans,LA,US,70037,29.82530022,-90.03500366,New Orleans NAS JRB/Alvin Callender Field,NBG
Beaufort County Airport,Beaufort,SC,US,29907,32.41220093,-80.63439941,Beaufort County Airport,BFT
Texarkana Regional Webb Field,Texarkana,AR,US,71854,33.45370102,-93.99099731,Texarkana Regional Webb Field,TXK
Plattsburgh International Airport,Plattsburgh,NY,US,12901,44.65090179,-73.4681015,Plattsburgh International Airport,PBG
Phillips Army Air Field,Aberdeen,MD,US,21005,39.466202,-76.1688,Phillips Army Air Field,APG
Tucumcari Municipal Airport,Tucumcari,NM,US,88401,35.18280029,-103.6029968,Tucumcari Municipal Airport,TCC
Ted Stevens Anchorage International Airport,Anchorage,AK,US,99502,61.17440033,-149.9960022,Ted Stevens Anchorage International Airport,ANC
Robert Gray  Army Air Field Airport,Killeen,TX,US,76549,31.06719971,-97.8289032,Robert Gray  Army Air Field Airport,GRK
Black Rock Airport,Zuni Pueblo,NM,US,87327,35.08319855,-108.7919998,Black Rock Airport,ZUN
Bellingham International Airport,Bellingham,WA,US,98226,48.7928009,-122.538002,Bellingham International Airport,BLI
Millington Regional Jetport Airport,Millington,TN,US,38053,35.3567009,-89.87030029,Millington Regional Jetport Airport,NQA
Elkins-Randolph Co-Jennings Randolph Field,Elkins,WV,US,26241,38.88940048,-79.85710144,Elkins-Randolph Co-Jennings Randolph Field,EKN
Hartford Brainard Airport,Hartford,CT,US,06114,41.73669815,-72.6493988,Hartford Brainard Airport,HFD
North Central State Airport,Smithfield,RI,US,02917,41.92079926,-71.49140167,North Central State Airport,SFZ
Mobile Regional Airport,Mobile,AL,US,36608,30.69120026,-88.24279785,Mobile Regional Airport,MOB
Moffett Federal Airfield,Mountain View,CA,US,94043,37.41609955,-122.0490036,Moffett Federal Airfield,NUQ
Santa Fe Municipal Airport,Santa Fe,NM,US,87507,35.61709976,-106.0889969,Santa Fe Municipal Airport,SAF
Barking Sands Airport,Barking Sands,Hawaii,US,,22.02280045,-159.7850037,Barking Sands Airport,BKH
Beauregard Regional Airport,Deridder,LA,US,70634,30.83169937,-93.33989716,Beauregard Regional Airport,DRI
Bradshaw Army Airfield,Bradshaw Field,HI,US,96743,19.76009941,-155.5540009,Bradshaw Army Airfield,BSF
Nogales International Airport,Nogales,AZ,US,85621,31.41769981,-110.8479996,Nogales International Airport,OLS
Mac Dill Air Force Base,Tampa,FL,US,33621,27.84930038,-82.52120209,Mac Dill Air Force Base,MCF
Scott AFB/Midamerica Airport,Belleville,IL,US,62225,38.5452,-89.835197,Scott AFB/Midamerica Airport,BLV
Opa-locka Executive Airport,Miami,FL,US,33054,25.90699959,-80.27839661,Opa-locka Executive Airport,OPF
Del Rio International Airport,Del Rio,TX,US,78840,29.37420082,-100.927002,Del Rio International Airport,DRT
Southwest Florida International Airport,Fort Myers,FL,US,33913,26.53619957,-81.75520325,Southwest Florida International Airport,RSW
King Salmon Airport,King Salmon,AK,US,99613,58.67679977,-156.6490021,King Salmon Airport,AKN
Muir Army Air Field (Fort Indiantown Gap) Airport,Muir,PA,US,17003,40.43479919,-76.56939697,Muir Army Air Field (Fort Indiantown Gap) Airport,MUI
Kapalua Airport,Lahania-kapalua,HI,US,96761,20.96290016,-156.6730042,Kapalua Airport,JHM
John F Kennedy International Airport,New York,NY,US,11430,40.63980103,-73.77890015,John F Kennedy International Airport,JFK
Homestead ARB Airport,Homestead,FL,US,33033,25.48859978,-80.38359833,Homestead ARB Airport,HST
Riverside Municipal Airport,Riverside,CA,US,92504,33.95190048,-117.4449997,Riverside Municipal Airport,RAL
Sherman Army Air Field,Fort Leavenworth,KS,US,66027,39.36830139,-94.91470337,Sherman Army Air Field,FLV
Wallops Flight Facility Airport,Wallops Island,VA,US,23337,37.94020081,-75.46640015,Wallops Flight Facility Airport,WAL
Holloman Air Force Base,Alamogordo,NM,US,88330,32.85250092,-106.1070023,Holloman Air Force Base,HMN
Willow Grove Naval Air Station/Joint Reserve Base,Willow Grove,PA,US,19090,40.19979858,-75.14820099,Willow Grove Naval Air Station/Joint Reserve Base,NXX
Cheyenne Regional Jerry Olson Field,Cheyenne,WY,US,82009,41.15570068,-104.8119965,Cheyenne Regional Jerry Olson Field,CYS
Stockton Metropolitan Airport,Stockton,CA,US,95206,37.89419937,-121.237999,Stockton Metropolitan Airport,SCK
Charleston Air Force Base-International Airport,Charleston,SC,US,29404,32.89860153,-80.04049683,Charleston Air Force Base-International Airport,CHS
Reno Tahoe International Airport,Reno,NV,US,89502,39.49909973,-119.7679977,Reno Tahoe International Airport,RNO
Ketchikan International Airport,Ketchikan,AK,US,99901,55.35559845,-131.7140045,Ketchikan International Airport,KTN
Willow Run Airport,Detroit,MI,US,48111,42.23789978,-83.53040314,Willow Run Airport,YIP
Vandenberg Air Force Base,Lompoc,CA,US,93437,34.73730087,-120.5839996,Vandenberg Air Force Base,VBG
Birmingham-Shuttlesworth International Airport,Birmingham,AL,US,35212,33.56290054,-86.75350189,Birmingham-Shuttlesworth International Airport,BHM
Lakehurst Maxfield Field Airport,Lakehurst,NJ,US,08527,40.03329849,-74.353302,Lakehurst Maxfield Field Airport,NEL
Nellis Air Force Base,Las Vegas,NV,US,89191,36.23619843,-115.0339966,Nellis Air Force Base,LSV
March ARB Airport,Riverside,CA,US,92571,33.88069916,-117.2590027,March ARB Airport,RIV
Modesto City Co-Harry Sham Field,Modesto,CA,US,95354,37.62580109,-120.9540024,Modesto City Co-Harry Sham Field,MOD
Sacramento International Airport,Sacramento,CA,US,95837,38.69540024,-121.5910034,Sacramento International Airport,SMF
Waukegan National Airport,Chicago,IL,US,60087,42.42219925,-87.86789703,Waukegan National Airport,UGN
City of Colorado Springs Municipal Airport,Colorado Springs,CO,US,80916,38.80580139,-104.7009964,City of Colorado Springs Municipal Airport,COS
Buffalo Niagara International Airport,Buffalo,NY,US,14225,42.94049835,-78.73220062,Buffalo Niagara International Airport,BUF
Griffing Sandusky Airport,Sandusky,OH,US,44870,41.4333992,-82.65229797,Griffing Sandusky Airport,SKY
Snohomish County (Paine Field) Airport,Everett,WA,US,98208,47.90629959,-122.2819977,Snohomish County (Paine Field) Airport,PAE
Mountain Home Air Force Base,Mountain Home,ID,US,83648,43.043598,-115.872002,Mountain Home Air Force Base,MUO
Cedar City Regional Airport,Cedar City,UT,US,84721,37.70100021,-113.098999,Cedar City Regional Airport,CDC
Bradley International Airport,Windsor Locks,CT,US,06096,41.93889999,-72.68319702,Bradley International Airport,BDL
Mc Allen Miller International Airport,Mcallen,TX,US,78503,26.17580032,-98.23860168,Mc Allen Miller International Airport,MFE
Norfolk Ns (Chambers Fld) Airport,Norfolk,VA,US,23511,36.93759918,-76.28929901,Norfolk Ns (Chambers Fld) Airport,NGU
Westover ARB/Metropolitan Airport,Chicopee Falls,MA,US,01022,42.19400024,-72.53479767,Westover ARB/Metropolitan Airport,CEF
Lubbock Preston Smith International Airport,Lubbock,TX,US,79403,33.66360092,-101.822998,Lubbock Preston Smith International Airport,LBB
Chicago O'Hare International Airport,Chicago,IL,US,60666,41.97859955,-87.90480042,Chicago O'Hare International Airport,ORD
Boca Raton Airport,Boca Raton,FL,US,33431,26.37849998,-80.10769653,Boca Raton Airport,BCT
Fairbanks International Airport,Fairbanks,AK,US,99709,64.81510162,-147.8560028,Fairbanks International Airport,FAI
Quantico MCAF /Turner field,Quantico,VA,US,22134,38.50170135,-77.30529785,Quantico MCAF /Turner field,NYG
Cannon Air Force Base,Clovis,NM,US,88103,34.38280106,-103.3219986,Cannon Air Force Base,CVS
Kaneohe Bay MCAS (Marion E. Carl Field) Airport,Kaneohe Bay,HI,US,96734,21.45050049,-157.7680054,Kaneohe Bay MCAS (Marion E. Carl Field) Airport,NGF
Offutt Air Force Base,Omaha,NE,US,68113,41.11830139,-95.91249847,Offutt Air Force Base,OFF
Gulkana Airport,Gulkana,AK,US,99588,62.1548996,-145.4570007,Gulkana Airport,GKN
Watertown International Airport,Watertown,NY,US,13634,43.9919014,-76.021698,Watertown International Airport,ART
Palm Springs International Airport,Palm Springs,CA,US,92234,33.82970047,-116.5070038,Palm Springs International Airport,PSP
Rick Husband Amarillo International Airport,Amarillo,TX,US,79111,35.2193985,-101.7060013,Rick Husband Amarillo International Airport,AMA
Fort Dodge Regional Airport,Fort Dodge,IA,US,50501,42.55149841,-94.19259644,Fort Dodge Regional Airport,FOD
Barksdale Air Force Base,Shreveport,LA,US,71110,32.50180054,-93.66269684,Barksdale Air Force Base,BAD
Topeka Regional Airport - Forbes Field,Topeka,KS,US,66609,38.95090103,-95.66359711,Topeka Regional Airport - Forbes Field,FOE
Cotulla-La Salle County Airport,Cotulla,TX,US,78014,28.45669937,-99.22029877,Cotulla-La Salle County Airport,COT
Wilmington International Airport,Wilmington,NC,US,28405,34.27059937,-77.90260315,Wilmington International Airport,ILM
"Baton Rouge Metropolitan, Ryan Field",Baton Rouge,LA,US,70811,30.53319931,-91.14959717,"Baton Rouge Metropolitan, Ryan Field",BTR
Tyler Pounds Regional Airport,Tyler,TX,US,75704,32.35409927,-95.40239716,Tyler Pounds Regional Airport,TYR
Baltimore/Washington International Thurgood Marshall Airport,Baltimore,MD,US,21240,39.17539978,-76.66829681,Baltimore/Washington International Thurgood Marshall Airport,BWI
Hobart Regional Airport,Hobart,OK,US,73651,34.991317,-99.051313,Hobart Regional Airport,HBR
Lanai Airport,Lanai,HI,US,96763,20.78560066,-156.951004,Lanai Airport,LNY
Alexandria International Airport,Alexandria,LA,US,71303,31.32740021,-92.54979706,Alexandria International Airport,AEX
Condron Army Air Field,White Sands,NM,US,88002,32.34149933,-106.4029999,Condron Army Air Field,WSD
Cold Bay Airport,Cold Bay,AK,US,99571,55.20610046,-162.7250061,Cold Bay Airport,CDB
Tulsa International Airport,Tulsa,OK,US,74115,36.19839859,-95.88809967,Tulsa International Airport,TUL
Sitka Rocky Gutierrez Airport,Sitka,AK,US,99835,57.04710007,-135.3619995,Sitka Rocky Gutierrez Airport,SIT
Long Island Mac Arthur Airport,Islip,NY,US,11779,40.79520035,-73.10019684,Long Island Mac Arthur Airport,ISP
Minneapolis-St Paul International/Wold-Chamberlain Airport,Minneapolis,MN,US,55111,44.88199997,-93.22180176,Minneapolis-St Paul International/Wold-Chamberlain Airport,MSP
New Castle Airport,Wilmington,DE,US,19720,39.67869949,-75.60649872,New Castle Airport,ILG
Unalaska Airport,Unalaska,AK,US,99692,53.90010071,-166.5440063,Unalaska Airport,DUT
Louis Armstrong New Orleans International Airport,New Orleans,LA,US,70062,29.99340057,-90.25800323,Louis Armstrong New Orleans International Airport,MSY
Portland International Jetport Airport,Portland,ME,US,04102,43.64619827,-70.30930328,Portland International Jetport Airport,PWM
Will Rogers World Airport,Oklahoma City,OK,US,73195,35.39310074,-97.60070038,Will Rogers World Airport,OKC
Albany International Airport,Albany,NY,US,12211,42.74829865,-73.80169678,Albany International Airport,ALB
Valdez Pioneer Field,Valdez,AK,US,99686,61.13389969,-146.2480011,Valdez Pioneer Field,VDZ
Langley Air Force Base,Hampton,VA,US,23665,37.082901,-76.36049652,Langley Air Force Base,LFI
John Wayne Airport-Orange County Airport,Santa Ana,CA,US,92626,33.67570114,-117.8679962,John Wayne Airport-Orange County Airport,SNA
Kendall-Tamiami Executive Airport,Kendall-tamiami,FL,US,33196,25.64789963,-80.43280029,Kendall-Tamiami Executive Airport,TMB
Oceana NAS,Oceana,VA,US,23460,36.8207016,-76.03350067,Oceana NAS,NTU
Grissom Air Reserve Base,Peru,IN,US,46971,40.64810181,-86.15209961,Grissom Air Reserve Base,GUS
Casper-Natrona County International Airport,Casper,WY,US,82604,42.90800095,-106.4639969,Casper-Natrona County International Airport,CPR
Destin-Ft Walton Beach Airport,Valparaiso,FL,US,32580,30.4832,-86.525398,Destin-Ft Walton Beach Airport,VPS
Craig Field,Selma,AL,US,36701,32.34389877,-86.9878006,Craig Field,SEM
Key West International Airport,Key West,FL,US,33040,24.55610085,-81.75959778,Key West International Airport,EYW
Charlotte Douglas International Airport,Charlotte,NC,US,28208,35.2140007,-80.94309998,Charlotte Douglas International Airport,CLT
McCarran International Airport,Las Vegas,NV,US,89119,36.08010101,-115.1520004,McCarran International Airport,LAS
Orlando International Airport,Orlando,FL,US,32827,28.42939949,-81.30899811,Orlando International Airport,MCO
Florence Regional Airport,Florence,SC,US,29506,34.1853981,-79.72389984,Florence Regional Airport,FLO
Great Falls International Airport,Great Falls,MT,US,59404,47.48199844,-111.3710022,Great Falls International Airport,GTF
Youngstown Warren Regional Airport,Youngstown,OH,US,44473,41.26070023,-80.67910004,Youngstown Warren Regional Airport,YNG
Ladd AAF Airfield,Fort Wainwright,AK,US,99703,64.83750153,-147.6139984,Ladd AAF Airfield,FBK
Mc Minnville Municipal Airport,Mackminnville,OR,US,97128,45.19440079,-123.1360016,Mc Minnville Municipal Airport,MMV
Robins Air Force Base,Macon,GA,US,31098,32.64009857,-83.59190369,Robins Air Force Base,WRB
Pullman Moscow Regional Airport,Pullman,WA,US,99163,46.7439,-117.110001,Pullman Moscow Regional Airport,PUW
Lewiston Nez Perce County Airport,Lewiston,ID,US,83501,46.37450027,-117.0149994,Lewiston Nez Perce County Airport,LWS
Elmira Corning Regional Airport,Elmira,NY,US,14845,42.15990067,-76.89160156,Elmira Corning Regional Airport,ELM
Ithaca Tompkins Regional Airport,Ithaca,NY,US,14850,42.49100113,-76.45839691,Ithaca Tompkins Regional Airport,ITH
Monterey Peninsula Airport,Monterey,CA,US,93940,36.5870018,-121.8430023,Monterey Peninsula Airport,MRY
Santa Barbara Municipal Airport,Santa Barbara,CA,US,93117,34.42620087,-119.8399963,Santa Barbara Municipal Airport,SBA
Daytona Beach International Airport,Daytona Beach,FL,US,32114,29.179899,-81.058098,Daytona Beach International Airport,DAB
Talkeetna Airport,Talkeetna,AK,US,99676,62.32049942,-150.0939941,Talkeetna Airport,TKA
Tweed New Haven Airport,New Haven,CT,US,06512,41.26369858,-72.88680267,Tweed New Haven Airport,HVN
Asheville Regional Airport,Asheville,NC,US,28732,35.43619919,-82.54180145,Asheville Regional Airport,AVL
Piedmont Triad International Airport,Greensboro,NC,US,27409,36.09780121,-79.93730164,Piedmont Triad International Airport,GSO
Joe Foss Field Airport,Sioux Falls,SD,US,57104,43.58200073,-96.74189758,Joe Foss Field Airport,FSD
Manchester Airport,Manchester NH,NH,US,03103,42.93259811,-71.43569946,Manchester Airport,MHT
Naples Municipal Airport,Naples,FL,US,34104,26.15259933,-81.77529907,Naples Municipal Airport,APF
Louisville International Standiford Field,Louisville,KY,US,40209,38.1744,-85.736,Louisville International Standiford Field,SDF
Charlottesville Albemarle Airport,Charlottesville VA,VA,US,22911,38.1385994,-78.45290375,Charlottesville Albemarle Airport,CHO
RoanokeðððBlacksburg Regional Airport,Roanoke VA,VA,US,24012,37.32550049,-79.97540283,RoanokeðððBlacksburg Regional Airport,ROA
Blue Grass Airport,Lexington KY,KY,US,40510,38.03649902,-84.60590363,Blue Grass Airport,LEX
Evansville Regional Airport,Evansville,IN,US,47725,38.03699875,-87.53240204,Evansville Regional Airport,EVV
Albuquerque International Sunport Airport,Albuquerque,NM,US,87106,35.04019928,-106.6090012,Albuquerque International Sunport Airport,ABQ
Gallatin Field,Bozeman,MT,US,59714,45.77750015,-111.1529999,Gallatin Field,BZN
Billings Logan International Airport,Billings,MT,US,59105,45.80770111,-108.5429993,Billings Logan International Airport,BIL
Bert Mooney Airport,Butte,MT,US,59701,45.95479965,-112.4970016,Bert Mooney Airport,BTM
Cherry Capital Airport,Traverse City,MI,US,49686,44.74140167,-85.5821991,Cherry Capital Airport,TVC
Hancock County-Bar Harbor Airport,Bar Harbor,ME,US,04605,44.45000076,-68.3615036,Hancock County-Bar Harbor Airport,BHB
Knox County Regional Airport,Rockland,ME,US,04854,44.06010056,-69.09919739,Knox County Regional Airport,RKD
Jackson Hole Airport,Jacksn Hole,WY,US,83001,43.6072998,-110.737999,Jackson Hole Airport,JAC
Chicago Rockford International Airport,Rockford,IL,US,61109,42.19540024,-89.09719849,Chicago Rockford International Airport,RFD
Greenville Spartanburg International Airport,Greenville,SC,US,29651,34.89569855,-82.21890259,Greenville Spartanburg International Airport,GSP
Central Illinois Regional Airport at Bloomington-Normal,Bloomington,IL,US,61704,40.47710037,-88.91590118,Central Illinois Regional Airport at Bloomington-Normal,BMI
Gulfport Biloxi International Airport,Gulfport,MS,US,39503,30.40730095,-89.07009888,Gulfport Biloxi International Airport,GPT
Kalamazoo Battle Creek International Airport,Kalamazoo,MI,US,49002,42.23490143,-85.55210114,Kalamazoo Battle Creek International Airport,AZO
Toledo Express Airport,Toledo,OH,US,43558,41.58679962,-83.80780029,Toledo Express Airport,TOL
Fort Wayne International Airport,Fort Wayne,IN,US,46809,40.97850037,-85.19509888,Fort Wayne International Airport,FWA
Decatur Airport,Decatur,IL,US,62521,39.83459854,-88.86569977,Decatur Airport,DEC
The Eastern Iowa Airport,Cedar Rapids,IA,US,52404,41.88470078,-91.71080017,The Eastern Iowa Airport,CID
La Crosse Municipal Airport,La Crosse,WI,US,54603,43.879002,-91.256699,La Crosse Municipal Airport,LSE
Central Wisconsin Airport,Wassau,WI,US,54455,44.77759933,-89.66680145,Central Wisconsin Airport,CWA
General Wayne A. Downing Peoria International Airport,Peoria,IL,US,61607,40.66419983,-89.69329834,General Wayne A. Downing Peoria International Airport,PIA
Appleton International Airport,Appleton,WI,US,54914,44.2580986,-88.51909637,Appleton International Airport,ATW
Rochester International Airport,Rochester,MN,US,55902,43.90829849,-92.5,Rochester International Airport,RST
University of Illinois Willard Airport,Champaign,IL,US,61822,40.03919983,-88.27809906,University of Illinois Willard Airport,CMI
Manhattan Regional Airport,Manhattan,KS,US,66503,39.14099884,-96.67079926,Manhattan Regional Airport,MHK
Venango Regional Airport,Franklin,PA,US,16323,41.37789917,-79.86039734,Venango Regional Airport,FKL
Grand Junction Regional Airport,Grand Junction,CO,US,81506,39.12239838,-108.5270004,Grand Junction Regional Airport,GJT
St George Municipal Airport,Saint George,UT,US,84790,37.03638889,-113.5103056,St George Municipal Airport,SGU
David Wayne Hooks Memorial Airport,Houston,TX,US,77379,30.0618,-95.55280304,David Wayne Hooks Memorial Airport,DWH
Port O'Connor Private Airport,Port O\\'Connor,TX,US,77979,28.42970085,-96.44439697,Port O'Connor Private Airport,S46
Sarasota Bradenton International Airport,Sarasota,FL,US,34243,27.39539909,-82.55439758,Sarasota Bradenton International Airport,SRQ
Van Nuys Airport,Van Nuys,CA,US,91406,34.20980072,-118.4899979,Van Nuys Airport,VNY
Quad City International Airport,Moline,IL,US,61265,41.44850159,-90.50749969,Quad City International Airport,MLI
Panama City-Bay Co International Airport,Panama City,FL,US,32405,30.212099,-85.6828,Panama City-Bay Co International Airport,PFN
Bismarck Municipal Airport,Bismarck,ND,US,58504,46.77270126,-100.7460022,Bismarck Municipal Airport,BIS
Telluride Regional Airport,Telluride,CO,US,81435,37.9538002,-107.9079971,Telluride Regional Airport,TEX
Rapid City Regional Airport,Rapid City,SD,US,57703,44.04529953,-103.0569992,Rapid City Regional Airport,RAP
Mc Clellan-Palomar Airport,Carlsbad,CA,US,92011,33.12829971,-117.2799988,Mc Clellan-Palomar Airport,CLD
Bishop International Airport,Flint,MI,US,48507,42.9654007,-83.74359894,Bishop International Airport,FNT
Redding Municipal Airport,Redding,CA,US,96002,40.50899887,-122.2929993,Redding Municipal Airport,RDD
Mahlon Sweet Field,Eugene,OR,US,97402,44.12459946,-123.211998,Mahlon Sweet Field,EUG
Idaho Falls Regional Airport,Idaho Falls,ID,US,83402,43.51459885,-112.0709991,Idaho Falls Regional Airport,IDA
Rogue Valley International Medford Airport,Medford,OR,US,97501,42.37419891,-122.8730011,Rogue Valley International Medford Airport,MFR
Roberts Field,Redmond-Bend,OR,US,97756,44.2541008,-121.1500015,Roberts Field,RDM
Akron Canton Regional Airport,Akron,OH,US,44720,40.91609955,-81.44219971,Akron Canton Regional Airport,CAK
Huntsville International Carl T Jones Field,Huntsville,AL,US,35824,34.6371994,-86.77510071,Huntsville International Carl T Jones Field,HSV
Mid Ohio Valley Regional Airport,PARKERSBURG,WV,US,26187,39.3451004,-81.43920135,Mid Ohio Valley Regional Airport,PKB
Montgomery Regional (Dannelly Field) Airport,MONTGOMERY,AL,US,36108,32.30059814,-86.39399719,Montgomery Regional (Dannelly Field) Airport,MGM
Tri Cities Regional Tn Va Airport,BRISTOL,TN,US,37617,36.47520065,-82.40740204,Tri Cities Regional Tn Va Airport,TRI
Barkley Regional Airport,PADUCAH,KY,US,42086,37.06079865,-88.77380371,Barkley Regional Airport,PAH
Page Municipal Airport,Page,AZ,US,86040,36.92610168,-111.447998,Page Municipal Airport,PGA
Glacier Park International Airport,Kalispell,MT,US,59901,48.3105011,-114.2559967,Glacier Park International Airport,FCA
MBS International Airport,Saginaw,MI,US,48623,43.53290176,-84.07959747,MBS International Airport,MBS
Greater Binghamton/Edwin A Link field,Binghamton,NY,US,13790,42.20869827,-75.97979736,Greater Binghamton/Edwin A Link field,BGM
Blythe Airport,Blythe,CA,US,92225,33.61920166,-114.7170029,Blythe Airport,BLH
Petersburg James A Johnson Airport,Petersburg,AK,US,99833,56.80170059,-132.9450073,Petersburg James A Johnson Airport,PSG
Orlando Sanford International Airport,Sanford,FL,US,32773,28.77759933,-81.23750305,Orlando Sanford International Airport,SFB
John Murtha Johnstown Cambria County Airport,Johnstown,PA,US,15904,40.31610107,-78.83390045,John Murtha Johnstown Cambria County Airport,JST
Missoula International Airport,Missoula,MT,US,59808,46.91630173,-114.0910034,Missoula International Airport,MSO
Grand Canyon National Park Airport,Grand Canyon,AZ,US,86023,35.95240021,-112.1470032,Grand Canyon National Park Airport,GCN
Sugar Land Regional Airport,Sugar Land,TX,US,77498,29.62229919,-95.65650177,Sugar Land Regional Airport,SGR
Centennial Airport,Denver,CO,US,80112,39.57009888,-104.848999,Centennial Airport,APA
Clovis Municipal Airport,Clovis,NM,US,88135,34.42509842,-103.0790024,Clovis Municipal Airport,CVN
Fort Stockton Pecos County Airport,Fort Stockton,TX,US,79735,30.91570091,-102.9160004,Fort Stockton Pecos County Airport,FST
Las Vegas Municipal Airport,Las Vegas,NM,US,87701,35.65420151,-105.1419983,Las Vegas Municipal Airport,LVS
West Houston Airport,Houston,TX,US,77084,29.81819916,-95.67259979,West Houston Airport,IWS
La Junta Municipal Airport,La Junta,CO,US,81050,38.04970169,-103.5090027,La Junta Municipal Airport,LHX
Las Cruces International Airport,Las Cruces,NM,US,88007,32.28939819,-106.9219971,Las Cruces International Airport,LRU
Stephens County Airport,Breckenridge,TX,US,76424,32.71900177,-98.89099884,Stephens County Airport,BKD
Draughon Miller Central Texas Regional Airport,Temple,TX,US,76504,31.15250015,-97.40779877,Draughon Miller Central Texas Regional Airport,TPL
Ozona Municipal Airport,Ozona,TX,US,76943,30.73530006,-101.2030029,Ozona Municipal Airport,OZA
Eagle County Regional Airport,Vail,CO,US,81637,39.64260101,-106.9179993,Eagle County Regional Airport,EGE
Cuyahoga County Airport,Richmond Heights,OH,US,44143,41.56510162,-81.48639679,Cuyahoga County Airport,CGF
Mansfield Lahm Regional Airport,Mansfield,OH,US,44903,40.82139969,-82.51660156,Mansfield Lahm Regional Airport,MFD
Columbus Metropolitan Airport,Columbus,GA,US,31909,32.5163002,-84.93890381,Columbus Metropolitan Airport,CSG
Lawton Fort Sill Regional Airport,Lawton,OK,US,73501,34.56769943,-98.41660309,Lawton Fort Sill Regional Airport,LAW
Fort Collins Loveland Municipal Airport,Fort Collins,CO,US,80538,40.4518013,-105.0110016,Fort Collins Loveland Municipal Airport,FNL
Flagstaff Pulliam Airport,Flagstaff,AZ,US,86001,35.13850021,-111.6709976,Flagstaff Pulliam Airport,FLG
Lake Tahoe Airport,South Lake Tahoe,CA,US,96150,38.89390182,-119.9950027,Lake Tahoe Airport,TVL
Joslin Field Magic Valley Regional Airport,Twin Falls,ID,US,83301,42.48180008,-114.487999,Joslin Field Magic Valley Regional Airport,TWF
Martha's Vineyard Airport,Vineyard Haven MA,MA,US,02539,41.39310074,-70.61430359,Martha's Vineyard Airport,MVY
Concord Municipal Airport,Concord NH,NH,US,03301,43.20270157,-71.50229645,Concord Municipal Airport,CON
Groton New London Airport,Groton CT,CT,US,06340,41.33010101,-72.04509735,Groton New London Airport,GON
St Cloud Regional Airport,Saint Cloud,MN,US,56304,45.54660034,-94.05989838,St Cloud Regional Airport,STC
Golden Triangle Regional Airport,Columbus Mississippi,MS,US,39701,33.45029831,-88.59140015,Golden Triangle Regional Airport,GTR
Bowerman Airport,Hoquiam,WA,US,98550,46.97119904,-123.9369965,Bowerman Airport,HQM
Erie International Tom Ridge Field,Erie,PA,US,16505,42.08312701,-80.17386675,Erie International Tom Ridge Field,ERI
Barnstable Municipal Boardman Polando Field,Barnstable,MA,US,02601,41.66930008,-70.28040314,Barnstable Municipal Boardman Polando Field,HYA
Sedona Airport,Sedona,AZ,US,86336,34.84859848,-111.788002,Sedona Airport,SDX
Morgantown Municipal Walter L. Bill Hart Field,Morgantown,WV,US,26505,39.64289856,-79.91629791,Morgantown Municipal Walter L. Bill Hart Field,MGW
Yeager Airport,Charleston,WV,US,25311,38.37310028,-81.59320068,Yeager Airport,CRW
Wilkes Barre Scranton International Airport,Scranton,PA,US,18641,41.33850098,-75.7233963,Wilkes Barre Scranton International Airport,AVP
Bemidji Regional Airport,Bemidji,MN,US,56601,47.50939941,-94.93370056,Bemidji Regional Airport,BJI
Hector International Airport,Fargo,ND,US,58102,46.92070007,-96.81580353,Hector International Airport,FAR
Charles B. Wheeler Downtown Airport,Kansas City,MO,US,64116,39.12319946,-94.59279633,Charles B. Wheeler Downtown Airport,MKC
Gillette Campbell County Airport,Gillette,WY,US,82716,44.34889984,-105.5390015,Gillette Campbell County Airport,GCC
University Park Airport,State College Pennsylvania,PA,US,16803,40.84930038,-77.84870148,University Park Airport,SCE
Key Field,Meridian,MS,US,39307,32.33259964,-88.75189972,Key Field,MEI
Abraham Lincoln Capital Airport,Springfield,IL,US,62707,39.84410095,-89.67790222,Abraham Lincoln Capital Airport,SPI
Cortez Municipal Airport,Cortez,CO,US,81321,37.3030014,-108.6279984,Cortez Municipal Airport,CEZ
Yampa Valley Airport,Hayden,CO,US,81639,40.48120117,-107.2180023,Yampa Valley Airport,HDN
Gallup Municipal Airport,Gallup,NM,US,87301,35.51110077,-108.7890015,Gallup Municipal Airport,GUP
Liberal Mid-America Regional Airport,Liberal,KS,US,67901,37.0442009,-100.9599991,Liberal Mid-America Regional Airport,LBL
Lamar Municipal Airport,Lamar,CO,US,81052,38.06969833,-102.6880035,Lamar Municipal Airport,LAA
Renner Field-Goodland Municipal Airport,Goodland,KS,US,67735,39.37060165,-101.6989975,Renner Field-Goodland Municipal Airport,GLD
Yellowstone Regional Airport,Cody,WY,US,82414,44.52019882,-109.0240021,Yellowstone Regional Airport,COD
Springfield Branson National Airport,Springfield,MO,US,65803,37.24570084,-93.38860321,Springfield Branson National Airport,SGF
Joplin Regional Airport,Joplin,MO,US,64870,37.15179825,-94.49829865,Joplin Regional Airport,JLN
Lehigh Valley International Airport,Allentown,PA,US,18109,40.65209961,-75.44080353,Lehigh Valley International Airport,ABE
Northwest Arkansas Regional Airport,Bentonville,AR,US,72712,36.281898,-94.306801,Northwest Arkansas Regional Airport,XNA
South Bend Regional Airport,South Bend,IN,US,46628,41.70869827,-86.31729889,South Bend Regional Airport,SBN
Smith Field,Fort Wayne IN,IN,US,46825,41.14339828,-85.15280151,Smith Field,SMD
Arcata Airport,Arcata CA,CA,US,95519,40.97809982,-124.1090012,Arcata Airport,ACV
Albert J Ellis Airport,Jacksonville NC,NC,US,28574,34.82920074,-77.61209869,Albert J Ellis Airport,OAJ
Tuscaloosa Regional Airport,Tuscaloosa AL,AL,US,35401,33.22060013,-87.61139679,Tuscaloosa Regional Airport,TCL
Dubuque Regional Airport,Dubuque IA,IA,US,52003,42.40200043,-90.70950317,Dubuque Regional Airport,DBQ
Aberdeen Regional Airport,Aberdeen,SD,US,57401,45.44910049,-98.42179871,Aberdeen Regional Airport,ABR
Southwest Georgia Regional Airport,Albany,GA,US,31701,31.53549957,-84.19450378,Southwest Georgia Regional Airport,ABY
Athens Ben Epps Airport,Athens,GA,US,30605,33.94860077,-83.32630157,Athens Ben Epps Airport,AHN
Alamogordo White Sands Regional Airport,Alamogordo,NM,US,88310,32.83990097,-105.9909973,Alamogordo White Sands Regional Airport,ALM
Waterloo Regional Airport,Waterloo,IA,US,50703,42.55709839,-92.40029907,Waterloo Regional Airport,ALO
Walla Walla Regional Airport,Walla Walla,WA,US,99362,46.09489822,-118.288002,Walla Walla Regional Airport,ALW
Alpena County Regional Airport,Alpena,MI,US,49707,45.0780983,-83.56030273,Alpena County Regional Airport,APN
Watertown Regional Airport,Watertown,SD,US,57201,44.91400146,-97.15470123,Watertown Regional Airport,ATY
Bradford Regional Airport,Bradford,PA,US,16738,41.80310059,-78.64009857,Bradford Regional Airport,BFD
Western Neb. Rgnl/William B. Heilig Airport,Scottsbluff,NE,US,69361,41.87400055,-103.5960007,Western Neb. Rgnl/William B. Heilig Airport,BFF
Raleigh County Memorial Airport,Beckley,WV,US,25813,37.78730011,-81.12419891,Raleigh County Memorial Airport,BKW
Brunswick Golden Isles Airport,Brunswick,GA,US,31525,31.25880051,-81.46649933,Brunswick Golden Isles Airport,BQK
Southeast Iowa Regional Airport,Burlington,IA,US,52601,40.78319931,-91.12550354,Southeast Iowa Regional Airport,BRL
Jack Mc Namara Field Airport,Crescent City,CA,US,95531,41.78020096,-124.2369995,Jack Mc Namara Field Airport,CEC
Cape Girardeau Regional Airport,Cape Girardeau,MO,US,63780,37.22529984,-89.57080078,Cape Girardeau Regional Airport,CGI
Chippewa County International Airport,Sault Ste Marie,MI,US,49788,46.25080109,-84.47239685,Chippewa County International Airport,CIU
North Central West Virginia Airport,Clarksburg,WV,US,26330,39.29660034,-80.22810364,North Central West Virginia Airport,CKB
William R Fairchild International Airport,Port Angeles,WA,US,98363,48.12020111,-123.5,William R Fairchild International Airport,CLM
Houghton County Memorial Airport,Hancock,MI,US,49930,47.16839981,-88.4890976,Houghton County Memorial Airport,CMX
Dodge City Regional Airport,Dodge City,KS,US,67801,37.76340103,-99.96559906,Dodge City Regional Airport,DDC
DuBois Regional Airport,Du Bois,PA,US,15851,41.17829895,-78.8986969,DuBois Regional Airport,DUJ
Chippewa Valley Regional Airport,Eau Claire,WI,US,54703,44.86579895,-91.48429871,Chippewa Valley Regional Airport,EAU
Elko Regional Airport,Elko,NV,US,89801,40.82490158,-115.7919998,Elko Regional Airport,EKO
New Bedford Regional Airport,New Bedford,MA,US,02745,41.67610168,-70.95690155,New Bedford Regional Airport,EWB
Fayetteville Regional Grannis Field,Fayetteville,NC,US,28306,34.99119949,-78.88030243,Fayetteville Regional Grannis Field,FAY
Wokal Field Glasgow International Airport,Glasgow,MT,US,59230,48.21250153,-106.6149979,Wokal Field Glasgow International Airport,GGW
Central Nebraska Regional Airport,Grand Island,NE,US,68801,40.96749878,-98.30960083,Central Nebraska Regional Airport,GRI
Memorial Field,Hot Springs,AR,US,71913,34.47800064,-93.09619904,Memorial Field,HOT
Tri-State/Milton J. Ferguson Field,Huntington,WV,US,25530,38.36669922,-82.55799866,Tri-State/Milton J. Ferguson Field,HTS
Kirksville Regional Airport,Kirksville,MO,US,63501,40.09349823,-92.54489899,Kirksville Regional Airport,IRK
Jamestown Regional Airport,Jamestown,ND,US,58401,46.92969894,-98.67819977,Jamestown Regional Airport,JMS
Laramie Regional Airport,Laramie,WY,US,82070,41.31209946,-105.6750031,Laramie Regional Airport,LAR
Arnold Palmer Regional Airport,Latrobe,PA,US,15650,40.27590179,-79.40480042,Arnold Palmer Regional Airport,LBE
North Platte Regional Airport Lee Bird Field,North Platte,NE,US,69101,41.12620163,-100.6839981,North Platte Regional Airport Lee Bird Field,LBF
Lebanon Municipal Airport,Lebanon,NH,US,03784,43.62609863,-72.30419922,Lebanon Municipal Airport,LEB
Klamath Falls Airport,Klamath Falls,OR,US,97603,42.15610123,-121.7330017,Klamath Falls Airport,LMT
Lancaster Airport,Lancaster,PA,US,17543,40.12170029,-76.2960968,Lancaster Airport,LNS
Lewistown Municipal Airport,Lewistown,MT,US,59457,47.04930115,-109.4670029,Lewistown Municipal Airport,LWT
Lynchburg Regional Preston Glenn Field,Lynchburg,VA,US,24502,37.3266983,-79.20040131,Lynchburg Regional Preston Glenn Field,LYH
Muskegon County Airport,Muskegon,MI,US,49441,43.16949844,-86.23819733,Muskegon County Airport,MKG
Frank Wiley Field,Miles City,MT,US,59301,46.4280014,-105.8860016,Frank Wiley Field,MLS
Northwest Alabama Regional Airport,Muscle Shoals,AL,US,35661,34.74530029,-87.61019897,Northwest Alabama Regional Airport,MSL
Southwest Oregon Regional Airport,North Bend,OR,US,97459,43.417099,-124.2460022,Southwest Oregon Regional Airport,OTH
Owensboro Daviess County Airport,Owensboro,KY,US,42301,37.74010086,-87.16680145,Owensboro Daviess County Airport,OWB
Hattiesburg Laurel Regional Airport,Hattiesburg/Laurel,MS,US,39459,31.46710014,-89.33709717,Hattiesburg Laurel Regional Airport,PIB
Pocatello Regional Airport,Pocatello,ID,US,83204,42.90980148,-112.5960007,Pocatello Regional Airport,PIH
Pierre Regional Airport,Pierre,SD,US,57501,44.38270187,-100.2860031,Pierre Regional Airport,PIR
Pellston Regional Airport of Emmet County Airport,Pellston,MI,US,49769,45.57089996,-84.79669952,Pellston Regional Airport of Emmet County Airport,PLN
Portsmouth International at Pease Airport,Portsmouth,NH,US,03801,43.07789993,-70.82330322,Portsmouth International at Pease Airport,PSM
Reading Regional Carl A Spaatz Field,Reading,PA,US,19605,40.37850189,-75.96520233,Reading Regional Carl A Spaatz Field,RDG
Rhinelander Oneida County Airport,Rhinelander,WI,US,54501,45.63119888,-89.46749878,Rhinelander Oneida County Airport,RHI
Rock Springs Sweetwater County Airport,Rock Springs,WY,US,82901,41.59420013,-109.0650024,Rock Springs Sweetwater County Airport,RKS
Rutland - Southern Vermont Regional Airport,Rutland,VT,US,05759,43.52939987,-72.94960022,Rutland - Southern Vermont Regional Airport,RUT
San Luis County Regional Airport,San Luis Obispo,CA,US,93401,35.23680115,-120.6419983,San Luis County Regional Airport,SBP
Sheridan County Airport,Sheridan,WY,US,82801,44.76919937,-106.9800034,Sheridan County Airport,SHR
Adirondack Regional Airport,Saranac Lake,NY,US,12983,44.38529968,-74.20619965,Adirondack Regional Airport,SLK
Salina Municipal Airport,Salina,KS,US,67401,38.79100037,-97.65219879,Salina Municipal Airport,SLN
Santa Maria Pub/Capt G Allan Hancock Field,Santa Maria,CA,US,93455,34.89889908,-120.4570007,Santa Maria Pub/Capt G Allan Hancock Field,SMX
Tupelo Regional Airport,Tupelo,MS,US,38801,34.26810074,-88.76989746,Tupelo Regional Airport,TUP
Quincy Regional Baldwin Field,Quincy,IL,US,62305,39.94269943,-91.19460297,Quincy Regional Baldwin Field,UIN
Victoria Regional Airport,Victoria,TX,US,77904,28.8526001,-96.91850281,Victoria Regional Airport,VCT
Valdosta Regional Airport,Valdosta,GA,US,31601,30.78249931,-83.27670288,Valdosta Regional Airport,VLD
Worland Municipal Airport,Worland,WY,US,82401,43.96569824,-107.9509964,Worland Municipal Airport,WRL
Yakima Air Terminal McAllister Field,Yakima,WA,US,98903,46.56819916,-120.5439987,Yakima Air Terminal McAllister Field,YKM
Adak Airport,Adak Island,AK,US,99546,51.87799835,-176.6459961,Adak Airport,ADK
Gustavus Airport,Gustavus,AK,US,99826,58.4253006,-135.7070007,Gustavus Airport,GST
Skagway Airport,Skagway,AK,US,99840,59.46009827,-135.3159943,Skagway Airport,SGY
Holy Cross Airport,Holy Cross,AK,US,99602,62.18830109,-159.7749939,Holy Cross Airport,HCR
Haines Airport,Haines,AK,US,99827,59.24380112,-135.5240021,Haines Airport,HNS
Kalskag Airport,Kalskag,AK,US,99626,61.53630066,-160.3410034,Kalskag Airport,KLG
McGrath Airport,Mcgrath,AK,US,99627,62.95289993,-155.6060028,McGrath Airport,MCG
Mountain Village Airport,Mountain Village,AK,US,99632,62.09540176,-163.6820068,Mountain Village Airport,MOU
Aniak Airport,Aniak,AK,US,99557,61.58160019,-159.5429993,Aniak Airport,ANI
Chevak Airport,Chevak,AK,US,99563,61.5409,-165.6005,Chevak Airport,VAK
Wrangell Airport,Wrangell,AK,US,99929,56.48429871,-132.3699951,Wrangell Airport,WRG
Kalaupapa Airport,Molokai,HI,US,96742,21.21100044,-156.973999,Kalaupapa Airport,LUP
Aleknagik / New Airport,Aleknagik,AK,US,99576,59.2826004,-158.6179962,Aleknagik / New Airport,WKK
Mercer County Airport,Bluefield,WV,US,24701,37.29579926,-81.20770264,Mercer County Airport,BLF
Mid Delta Regional Airport,Greenville,MS,US,38703,33.48289871,-90.98560333,Mid Delta Regional Airport,GLH
Tri Cities Airport,Pasco,WA,US,99301,46.26470184,-119.1190033,Tri Cities Airport,PSC
Akutan Seaplane Base,Akutan,AK,US,99553,54.13377044,-165.7788956,Akutan Seaplane Base,KQA
Lopez Island Airport,Lopez,WA,US,98261,48.48389816,-122.9380035,Lopez Island Airport,LPS
Waikoloa Heliport,Waikoloa Village,HI,US,96743,19.9205,-155.8607,Waikoloa Heliport,WKL
Worcester Regional Airport,Worcester,MA,US,01602,42.26729965,-71.8757019,Worcester Regional Airport,ORH
Bremerton National Airport,Bremerton,WA,US,98312,47.49020004,-122.7649994,Bremerton National Airport,PWT
Spencer Municipal Airport,Spencer,IA,US,51301,43.16550064,-95.20279694,Spencer Municipal Airport,SPW
Jefferson City Memorial Airport,Jefferson City,MO,US,65101,38.59120178,-92.15609741,Jefferson City Memorial Airport,JEF
Provincetown Municipal Airport,Provincetown,MA,US,02657,42.07189941,-70.2213974,Provincetown Municipal Airport,PVC
Fullerton Municipal Airport,Fullerton,CA,US,92833,33.87200165,-117.9800034,Fullerton Municipal Airport,FUL
Concord Regional Airport,Concord,NC,US,28027,35.387798,-80.709099,Concord Regional Airport,\N
Friedman Memorial Airport,Hailey,ID,US,83333,43.50439835,-114.2959976,Friedman Memorial Airport,SUN
Mason City Municipal Airport,Mason City,IA,US,50428,43.15779877,-93.33129883,Mason City Municipal Airport,MCW
Phoenix-Mesa-Gateway Airport,Mesa,AZ,US,85212,33.30780029,-111.6549988,Phoenix-Mesa-Gateway Airport,AZA
Anaktuvuk Pass Airport,Anaktuvuk Pass,AK,US,99721,68.13359833,-151.7429962,Anaktuvuk Pass Airport,AKP
Anvik Airport,Anvik,AK,US,99558,62.646702,-160.190994,Anvik Airport,ANV
Atqasuk Edward Burnell Sr Memorial Airport,Atqasuk,AK,US,99791,70.46730042,-157.4360046,Atqasuk Edward Burnell Sr Memorial Airport,ATK
Gambell Airport,Gambell,AK,US,99742,63.76679993,-171.7330017,Gambell Airport,GAM
Hooper Bay Airport,Hooper Bay,AK,US,99604,61.52389908,-166.1470032,Hooper Bay Airport,HPB
Kaltag Airport,Kaltag,AK,US,99748,64.31909943,-158.7409973,Kaltag Airport,KAL
St Mary's Airport,St Mary's,AK,US,99658,62.0605011,-163.302002,St Mary's Airport,KSM
Kivalina Airport,Kivalina,AK,US,99750,67.73619843,-164.5630035,Kivalina Airport,KVL
Mekoryuk Airport,Mekoryuk,AK,US,,60.37139893,-166.2709961,Mekoryuk Airport,MYU
Ruby Airport,Ruby,AK,US,99768,64.72720337,-155.4700012,Ruby Airport,RBY
Shishmaref Airport,Shishmaref,AK,US,99772,66.249604,-166.089112,Shishmaref Airport,SHH
Savoonga Airport,Savoonga,AK,US,99769,63.68640137,-170.4929962,Savoonga Airport,SVA
Noatak Airport,Noatak,AK,US,99761,67.56610107,-162.9750061,Noatak Airport,WTK
Arctic Village Airport,Arctic Village,AK,US,99722,68.1147,-145.578995,Arctic Village Airport,ARC
Hagerstown Regional Richard A Henson Field,Hagerstown,MD,US,21742,39.707901,-77.72949982,Hagerstown Regional Richard A Henson Field,HGR
Sand Point Airport,Sand Point,AK,US,99661,55.31499863,-160.522995,Sand Point Airport,SDP
Deering Airport,Deering,AK,US,99736,66.06960297,-162.7660065,Deering Airport,DRG
Igiugig Airport,Igiugig,AK,US,99613,59.32400131,-155.9019928,Igiugig Airport,IGG
New Stuyahok Airport,New Stuyahok,AK,US,99519,59.44990158,-157.3280029,New Stuyahok Airport,KNW
King Cove Airport,King Cove,AK,US,99612,55.11629868,-162.2660065,King Cove Airport,KVC
Port Heiden Airport,Port Heiden,AK,US,99549,56.95909882,-158.6329956,Port Heiden Airport,PTH
Togiak Airport,Togiak Village,AK,US,99678,59.05279922,-160.3970032,Togiak Airport,TOG
Delta County Airport,Escanaba,MI,US,49829,45.72269821,-87.09369659,Delta County Airport,ESC
Yakutat Airport,Yakutat,AK,US,99689,59.50329971,-139.6600037,Yakutat Airport,YAK
Williamson County Regional Airport,Marion,IL,US,62959,37.75500107,-89.01110077,Williamson County Regional Airport,MWA
Ford Airport,Iron Mountain,MI,US,49802,45.81840134,-88.11450195,Ford Airport,IMT
Marquette Airport,Marquette,MI,US,49866,46.53390121,-87.56140137,Marquette Airport,\N
Allakaket Airport,Allakaket,AK,US,99720,66.55180359,-152.621994,Allakaket Airport,AET
Michigan City Municipal Airport,Michigan City,IN,US,46360,41.70330048,-86.82119751,Michigan City Municipal Airport,MGC
Seward Airport,Seward,AK,US,99664,60.12689972,-149.4190063,Seward Airport,SWD
Grand Marais Cook County Airport,Grand Marais,MN,US,55604,47.8382988,-90.38289642,Grand Marais Cook County Airport,GRM
Wausau Downtown Airport,Wausau,WI,US,54403,44.92620087,-89.62660217,Wausau Downtown Airport,AUW
Delaware County Johnson Field,Muncie,IN,US,47303,40.24229813,-85.39589691,Delaware County Johnson Field,MIE
Purdue University Airport,Lafayette,IN,US,47907,40.41230011,-86.93689728,Purdue University Airport,LAF
Brown County Airport,Georgetown,OH,US,45121,38.88190079,-83.88269806,Brown County Airport,\N
North Las Vegas Airport,Las Vegas,NV,US,89032,36.21070099,-115.1940002,North Las Vegas Airport,VGT
Kenosha Regional Airport,Kenosha,WI,US,53144,42.59569931,-87.92780304,Kenosha Regional Airport,ENW
Montrose Regional Airport,Montrose CO,CO,US,81401,38.50979996,-107.8939972,Montrose Regional Airport,MTJ
Riverton Regional Airport,Riverton WY,WY,US,82501,43.06420136,-108.4599991,Riverton Regional Airport,RIW
Eastern Oregon Regional At Pendleton Airport,Pendleton,OR,US,97801,45.69509888,-118.8410034,Eastern Oregon Regional At Pendleton Airport,PDT
Wittman Regional Airport,Oshkosh,WI,US,54902,43.9844017,-88.55699921,Wittman Regional Airport,OSH
Pangborn Memorial Airport,Wenatchee,WA,US,98802,47.39889908,-120.2070007,Pangborn Memorial Airport,EAT
NAS Fort Worth JRB/Carswell Field,Dallas,TX,US,76108,32.76919937,-97.4414978,NAS Fort Worth JRB/Carswell Field,\N
Gary Chicago International Airport,Gary,IN,US,46406,41.61629868,-87.41280365,Gary Chicago International Airport,GYY
Brainerd Lakes Regional Airport,Brainerd,MN,US,56401,46.39830017,-94.13809967,Brainerd Lakes Regional Airport,BRD
Greenbrier Valley Airport,Lewisburg,WV,US,24938,37.85829926,-80.39949799,Greenbrier Valley Airport,LWB
Pitt Greenville Airport,Greenville,NC,US,27834,35.6352005,-77.38529968,Pitt Greenville Airport,PGV
Chefornak Airport,Chefornak,AK,US,,60.14920044,-164.2859955,Chefornak Airport,CYF
Oxnard Airport,Oxnard,CA,US,93030,34.20080185,-119.2070007,Oxnard Airport,OXR
Schenectady County Airport,Scotia NY,NY,US,12302,42.85250092,-73.92890167,Schenectady County Airport,SCH
Northeast Florida Regional Airport,St. Augustine Airport,FL,US,32095,29.95919991,-81.33979797,Northeast Florida Regional Airport,UST
Charles M. Schulz Sonoma County Airport,Santa Rosa,CA,US,95492,38.50899887,-122.8130035,Charles M. Schulz Sonoma County Airport,STS
Kissimmee Gateway Airport,Kissimmee,FL,US,34741,28.28980064,-81.43710327,Kissimmee Gateway Airport,ISM
Lake City Gateway Airport,Lake City,FL,US,32025,30.18199921,-82.57689667,Lake City Gateway Airport,LCQ
Deland Municipal Sidney H Taylor Field,DeLand,FL,US,32724,29.06699944,-81.28379822,Deland Municipal Sidney H Taylor Field,\N
Haller Airpark,Green Cove Springs,FL,US,32043,29.904057,-81.68515,Haller Airpark,\N
Logan-Cache Airport,Logan,UT,US,84341,41.79119873,-111.8519974,Logan-Cache Airport,LGU
Brigham City Airport,Brigham City,UT,US,84302,41.55239868,-112.0619965,Brigham City Airport,BMC
Malad City Airport,Malad City,ID,US,83252,42.16659927,-112.2969971,Malad City Airport,MLD
Aspen-Pitkin Co/Sardy Field,Aspen,CO,US,81611,39.22320175,-106.8690033,Aspen-Pitkin Co/Sardy Field,ASE
Kerrville Municipal Louis Schreiner Field,Kerrville,TX,US,78028,29.97669983,-99.08570099,Kerrville Municipal Louis Schreiner Field,ERV
Sussex County Airport,Georgetown,DE,US,19947,38.68920135,-75.35890198,Sussex County Airport,GED
Great Bend Municipal Airport,Great Bend,KS,US,67530,38.34429932,-98.85919952,Great Bend Municipal Airport,GBN
Hays Regional Airport,Hays,KS,US,67601,38.84220123,-99.27320099,Hays Regional Airport,HYS
Spirit of St Louis Airport,Null,MO,US,63005,38.66210175,-90.65200043,Spirit of St Louis Airport,SUS
Ely Municipal Airport,Ely,MN,US,55731,47.82450104,-91.83070374,Ely Municipal Airport,LYU
Grand Rapids Itasca Co-Gordon Newstrom field,Grand Rapids MN,MN,US,55744,47.21110153,-93.50980377,Grand Rapids Itasca Co-Gordon Newstrom field,GPZ
Thief River Falls Regional Airport,Thief River Falls,MN,US,56701,48.06570053,-96.18499756,Thief River Falls Regional Airport,TVF
Eagle River Union Airport,Eagle River,WI,US,54521,45.93230057,-89.26830292,Eagle River Union Airport,EGV
Lakeland-Noble F. Lee Memorial field,Minocqua - Woodruff,WI,US,54568,45.92789841,-89.73090363,Lakeland-Noble F. Lee Memorial field,ARV
Ankeny Regional Airport,Ankeny,IA,US,50021,41.69139862,-93.56639862,Ankeny Regional Airport,IKV
Corpus Christi Naval Air Station/Truax Field,Corpus Christi,TX,US,78418,27.69260025,-97.29109955,Corpus Christi Naval Air Station/Truax Field,NGP
Catalina Airport,Catalina Island,CA,US,90704,33.4049,-118.416,Catalina Airport,AVX
Mojave Airport,Mojave,CA,US,93501,35.05939865,-118.1520004,Mojave Airport,MHV
Hutchinson Municipal Airport,Hutchinson,KS,US,67501,38.06549835,-97.86060333,Hutchinson Municipal Airport,HUT
Rosecrans Memorial Airport,Rosecrans,MO,US,64503,39.77190018,-94.90969849,Rosecrans Memorial Airport,STJ
Volk Field,Camp Douglas,WI,US,54618,43.93899918,-90.25340271,Volk Field,VOK
Gunnison Crested Butte Regional Airport,Gunnison,CO,US,81230,38.53390121,-106.9329987,Gunnison Crested Butte Regional Airport,GUC
Zamperini Field,Torrance,CA,US,90505,33.80339813,-118.3399963,Zamperini Field,TOA
Manistee Co Blacker Airport,Manistee,MI,US,49660,44.2723999,-86.24690247,Manistee Co Blacker Airport,MBL
Charlotte County Airport,Punta Gorda,FL,US,33982,26.92020035,-81.9905014,Charlotte County Airport,PGD
Northern Aroostook Regional Airport,Frenchville,ME,US,04745,47.28549957,-68.31279755,Northern Aroostook Regional Airport,WFK
Chautauqua County-Jamestown Airport,Jamestown,NY,US,14701,42.15340042,-79.25800323,Chautauqua County-Jamestown Airport,JHW
Lake Cumberland Regional Airport,Somerset,KY,US,42501,37.05339813,-84.61589813,Lake Cumberland Regional Airport,SME
Shenandoah Valley Regional Airport,Weyers Cave,VA,US,24486,38.26380157,-78.89640045,Shenandoah Valley Regional Airport,SHD
Devils Lake Regional Airport,Devils Lake,ND,US,58301,48.11420059,-98.90879822,Devils Lake Regional Airport,DVL
Dickinson Theodore Roosevelt Regional Airport,Dickinson,ND,US,58601,46.79740143,-102.802002,Dickinson Theodore Roosevelt Regional Airport,DIK
Sidney Richland Municipal Airport,Sidney,MT,US,59270,47.70690155,-104.1930008,Sidney Richland Municipal Airport,SDY
Chadron Municipal Airport,Chadron,NE,US,69337,42.83760071,-103.0950012,Chadron Municipal Airport,CDR
Alliance Municipal Airport,Alliance,NE,US,69301,42.05319977,-102.8040009,Alliance Municipal Airport,AIA
Mc Cook Ben Nelson Regional Airport,McCook,NE,US,69001,40.20629883,-100.5920029,Mc Cook Ben Nelson Regional Airport,MCK
The Florida Keys Marathon Airport,Marathon,FL,US,33050,24.72610092,-81.05139923,The Florida Keys Marathon Airport,MTH
Dawson Community Airport,Glendive,MT,US,59330,47.13869858,-104.8069992,Dawson Community Airport,GDV
L M Clayton Airport,Wolf Point,MT,US,59201,48.0945015,-105.5749969,L M Clayton Airport,OLF
Yellowstone Airport,West Yellowstone,MT,US,59758,44.68840027,-111.1179962,Yellowstone Airport,WYS
San Luis Valley Regional Bergman Field,Alamosa,CO,US,81101,37.434898,-105.866997,San Luis Valley Regional Bergman Field,ALS
Canyonlands Field,Moab,UT,US,84532,38.75500107,-109.7549973,Canyonlands Field,CNY
Ely Airport Yelland Field,Ely,NV,US,89301,39.29970169,-114.8420029,Ely Airport Yelland Field,ELY
Vernal Regional Airport,Vernal,UT,US,84078,40.4408989,-109.5100021,Vernal Regional Airport,VEL
Sierra Blanca Regional Airport,Ruidoso,NM,US,88312,33.46279907,-105.5350037,Sierra Blanca Regional Airport,SRR
Show Low Regional Airport,Show Low,AZ,US,85901,34.26549912,-110.0059967,Show Low Regional Airport,SOW
McCall Municipal Airport,McCall,ID,US,83638,44.88970184,-116.1009979,McCall Municipal Airport,MYL
Lemhi County Airport,Salmon,ID,US,83467,45.12379837,-113.8809967,Lemhi County Airport,SMN
Mammoth Yosemite Airport,Mammoth Lakes,CA,US,93546,37.62409973,-118.8379974,Mammoth Yosemite Airport,MMH
Friday Harbor Airport,Friday Harbor,WA,US,98250,48.52199936,-123.0240021,Friday Harbor Airport,FRD
Orcas Island Airport,Eastsound,WA,US,98245,48.70819855,-122.9100037,Orcas Island Airport,ESD
Astoria Regional Airport,Astoria,OR,US,97146,46.15800095,-123.8789978,Astoria Regional Airport,AST
Newport Municipal Airport,Newport,OR,US,97366,44.58039856,-124.0579987,Newport Municipal Airport,ONP
Emmonak Airport,Emmonak,AK,US,99581,62.78609848,-164.4909973,Emmonak Airport,EMK
Unalakleet Airport,Unalakleet,AK,US,99684,63.88840103,-160.798996,Unalakleet Airport,UNK
Ugnu-Kuparuk Airport,Kuparuk,Alaska,US,,70.33080292,-149.5980072,Ugnu-Kuparuk Airport,UUK
Shageluk Airport,Shageluk,AK,US,99665,62.69229889,-159.5690002,Shageluk Airport,SHX
Nuiqsut Airport,Nuiqsut,AK,US,99789,70.20999908,-151.0059967,Nuiqsut Airport,NUI
Eek Airport,Eek,AK,US,99578,60.21367264,-162.0438843,Eek Airport,EEK
Kasigluk Airport,Kasigluk,AK,US,99609,60.87440109,-162.5240021,Kasigluk Airport,KUK
Kwethluk Airport,Kwethluk,AK,US,99621,60.79029846,-161.4440002,Kwethluk Airport,KWT
Kwigillingok Airport,Kwigillingok,AK,US,99622,59.876499,-163.169005,Kwigillingok Airport,KWK
Marshall Don Hunter Sr Airport,Marshall,AK,US,99585,61.86429977,-162.026001,Marshall Don Hunter Sr Airport,MLL
Russian Mission Airport,Russian Mission,AK,US,99657,61.77888489,-161.319458,Russian Mission Airport,RSH
Koliganek Airport,Koliganek,AK,US,99576,59.72660065,-157.2590027,Koliganek Airport,KGK
Manokotak Airport,Manokotak,AK,US,99628,58.99020004,-159.0500031,Manokotak Airport,KMO
Chalkyitsik Airport,Chalkyitsik,AK,US,99788,66.64499664,-143.7400055,Chalkyitsik Airport,CIK
Eagle Airport,Eagle,AK,US,99738,64.77639771,-141.151001,Eagle Airport,EAA
Hughes Airport,Hughes,AK,US,99745,66.04109955,-154.2630005,Hughes Airport,HUS
Huslia Airport,Huslia,AK,US,99746,65.69789886,-156.3509979,Huslia Airport,HSL
Nulato Airport,Nulato,AK,US,99765,64.72930145,-158.0740051,Nulato Airport,NUL
Venetie Airport,Venetie,AK,US,99781,67.00869751,-146.3659973,Venetie Airport,VEE
Beaver Airport,Beaver,AK,US,99724,66.36219788,-147.4069977,Beaver Airport,WBQ
Central Airport,Central,AK,US,99730,65.57379913,-144.7830048,Central Airport,CEM
Shungnak Airport,Shungnak,AK,US,99773,66.88809967,-157.1620026,Shungnak Airport,SHG
Inyokern Airport,Inyokern,CA,US,93527,35.65879822,-117.8300018,Inyokern Airport,IYK
Visalia Municipal Airport,Visalia,CA,US,93277,36.31869888,-119.3929977,Visalia Municipal Airport,VIS
Merced Regional Macready Field,Merced,CA,US,95341,37.28469849,-120.5139999,Merced Regional Macready Field,MCE
Phoenix Goodyear Airport,Goodyear,AZ,US,85338,33.42250061,-112.3759995,Phoenix Goodyear Airport,\N
Angoon Seaplane Base,Angoon,AK,US,99820,57.503601,-134.585007,Angoon Seaplane Base,AGN
Elfin Cove Seaplane Base,Elfin Cove,AK,US,99825,58.19520187,-136.3470001,Elfin Cove Seaplane Base,ELV
Funter Bay Seaplane Base,Funter Bay,AK,US,,58.25439835,-134.897995,Funter Bay Seaplane Base,FNR
Hoonah Airport,Hoonah,AK,US,99829,58.0961,-135.410111,Hoonah Airport,HNH
Kake Airport,Kake,AK,US,99830,56.96139908,-133.9100037,Kake Airport,AFE
Metlakatla Seaplane Base,Metakatla,AK,US,99926,55.13100052,-131.5780029,Metlakatla Seaplane Base,MTM
Hydaburg Seaplane Base,Hydaburg,AK,US,99922,55.20629883,-132.8280029,Hydaburg Seaplane Base,HYG
Egegik Airport,Egegik,AK,US,99579,58.1855011,-157.375,Egegik Airport,EGX
Perryville Airport,Perryville,AK,US,99648,55.905998,-159.162993,Perryville Airport,KPV
Pilot Point Airport,Pilot Point,AK,US,99649,57.58039856,-157.5720062,Pilot Point Airport,PIP
South Naknek Nr 2 Airport,South Naknek,AK,US,99633,58.70339966,-157.0079956,South Naknek Nr 2 Airport,WSN
Akhiok Airport,Akhiok,AK,US,99615,56.93870163,-154.1829987,Akhiok Airport,AKK
Karluk Airport,Karluk,AK,US,99615,57.56710052,-154.4499969,Karluk Airport,KYK
Larsen Bay Airport,Larsen Bay,AK,US,99624,57.53509903,-153.9779968,Larsen Bay Airport,KLN
Ambler Airport,Ambler,AK,US,99786,67.10630035,-157.8569946,Ambler Airport,ABL
Buckland Airport,Buckland,AK,US,99727,65.9815979,-161.1490021,Buckland Airport,BKC
Bob Baker Memorial Airport,Kiana,AK,US,99749,66.97599792,-160.4369965,Bob Baker Memorial Airport,IAN
Kobuk Airport,Kobuk,AK,US,99751,66.91230011,-156.8970032,Kobuk Airport,OBU
Robert (Bob) Curtis Memorial Airport,Noorvik,AK,US,99763,66.81790161,-161.0189972,Robert (Bob) Curtis Memorial Airport,ORV
Selawik Airport,Selawik,AK,US,99770,66.60009766,-159.9859924,Selawik Airport,WLK
Brevig Mission Airport,Brevig Mission,AK,US,99785,65.33129883,-166.4660034,Brevig Mission Airport,KTS
Elim Airport,Elim,AK,US,99739,64.61470032,-162.2720032,Elim Airport,ELI
Golovin Airport,Golovin,AK,US,99762,64.55049896,-163.0070038,Golovin Airport,GLV
Teller Airport,Teller,AK,US,99778,65.24040222,-166.3390045,Teller Airport,TLA
Wales Airport,Wales,AK,US,99783,65.622593,-168.095,Wales Airport,WAA
White Mountain Airport,White Mountain,AK,US,99784,64.68920136,-163.4129944,White Mountain Airport,WMO
Koyuk Alfred Adams Airport,Koyuk,AK,US,99753,64.9394989,-161.154007,Koyuk Alfred Adams Airport,KKA
St Michael Airport,St. Michael,AK,US,99659,63.49010086,-162.1100006,St Michael Airport,SMK
Shaktoolik Airport,Shaktoolik,AK,US,99771,64.37110138,-161.223999,Shaktoolik Airport,SKK
Tin City Long Range Radar Station Airport,Tin City,AK,US,99772,65.56310272,-167.9219971,Tin City Long Range Radar Station Airport,TNC
Atka Airport,Atka,AK,US,99547,52.22029877,-174.2059937,Atka Airport,AKB
Yakataga Airport,Yakataga,Alaska,US,,60.08200073,-142.4929962,Yakataga Airport,CYT
Alakanuk Airport,Alakanuk,AK,US,99554,62.68004227,-164.6599274,Alakanuk Airport,AUK
Kipnuk Airport,Kipnuk,AK,US,99614,59.93299866,-164.0310059,Kipnuk Airport,KPN
False Pass Airport,False Pass,AK,US,99583,54.84740067,-163.4100037,False Pass Airport,KFP
Nelson Lagoon Airport,Nelson Lagoon,AK,US,99571,56.00749969,-161.1600037,Nelson Lagoon Airport,NLG
Port Moller Airport,Cold Bay,AK,US,,56.00600052,-160.5610046,Port Moller Airport,PML
Klawock Airport,Klawock,AK,US,99925,55.57920074,-133.076004,Klawock Airport,KLW
Quinhagak Airport,Quinhagak,AK,US,99655,59.75510025,-161.8450012,Quinhagak Airport,KWN
Kotlik Airport,Kotlik,AK,US,99620,63.0306015,-163.5330048,Kotlik Airport,KOT
Koyukuk Airport,Koyukuk,AK,US,99754,64.87609863,-157.727005,Koyukuk Airport,KYU
Scammon Bay Airport,Scammon Bay,AK,US,99662,61.84529877,-165.5709991,Scammon Bay Airport,SCM
Nondalton Airport,Nondalton,AK,US,99640,59.98020172,-154.8390045,Nondalton Airport,NNL
Kongiganak Airport,Kongiganak,AK,US,99559,59.96080017,-162.8809967,Kongiganak Airport,KKH
Nikolai Airport,Nikolai,AK,US,99691,63.01860046,-154.3580017,Nikolai Airport,NIB
Akiak Airport,Akiak,AK,US,99552,60.9029007,-161.2310028,Akiak Airport,AKI
Wainwright Airport,Wainwright,AK,US,99782,70.63800049,-159.9949951,Wainwright Airport,AIN
Chenega Bay Airport,Chenega,AK,US,99574,60.07730103,-147.9920044,Chenega Bay Airport,NCN
Tok Junction Airport,Tok,AK,US,99780,63.32949829,-142.9539948,Tok Junction Airport,TKJ
Circle City /New/ Airport,Circle,AK,US,99733,65.830498,-144.076008,Circle City /New/ Airport,IRC
Sleetmute Airport,Sleetmute,AK,US,99668,61.70050049,-157.1660004,Sleetmute Airport,SLQ
Healy River Airport,Healy,AK,US,99743,63.86619949,-148.9689941,Healy River Airport,HKB
Klawock Seaplane Base,Klawock,AK,US,99925,55.55469894,-133.102005,Klawock Seaplane Base,AQC
Minchumina Airport,Lake Minchumina,AK,US,99757,63.88600159,-152.302002,Minchumina Airport,MHM
Manley Hot Springs Airport,Manley Hot Springs,AK,US,99756,64.99759674,-150.6439972,Manley Hot Springs Airport,MLY
Eastern WV Regional Airport/Shepherd Field,Martinsburg,WV,US,25405,39.40190125,-77.98459625,Eastern WV Regional Airport/Shepherd Field,MRB
Rock Hill - York County Airport,Rock Hill,SC,US,29732,34.9878006,-81.05719757,Rock Hill - York County Airport,RKH
Allegheny County Airport,Pittsburgh,PA,US,15122,40.35440063,-79.93019867,Allegheny County Airport,AGC
Cecil Airport,Jacksonville,FL,US,32221,30.21870041,-81.87670136,Cecil Airport,\N
Fulton County Airport Brown Field,Atlanta,GA,US,30336,33.77909851,-84.52140045,Fulton County Airport Brown Field,FTY
Ohio State University Airport,Columbus,OH,US,43017,40.07979965,-83.07299805,Ohio State University Airport,OSU
Addison Airport,Addison,TX,US,75001,32.96860123,-96.83640289,Addison Airport,ADS
Destin Executive Airport,Destin,FL,US,32541,30.40010071,-86.47149658,Destin Executive Airport,DTS
Kinston Regional Jetport At Stallings Field,Kinston,NC,US,28504,35.33140183,-77.6088028,Kinston Regional Jetport At Stallings Field,ISO
First Flight Airport,Kill Devil Hills,NC,US,27948,36.01819992,-75.6713028,First Flight Airport,FFA
Provo Municipal Airport,Provo,UT,US,84601,40.21920013,-111.7229996,Provo Municipal Airport,PVU
Steamboat Springs Bob Adams Field,Steamboat Springs,CO,US,80487,40.5163002,-106.8659973,Steamboat Springs Bob Adams Field,SBS
Delta Municipal Airport,Delta,UT,US,84624,39.38059998,-112.5080032,Delta Municipal Airport,DTA
Richfield Municipal Airport,Richfield,UT,US,84701,38.7364006,-112.098999,Richfield Municipal Airport,RIF
Carbon County Regional/Buck Davis Field,Price,UT,US,84501,39.61389923,-110.7509995,Carbon County Regional/Buck Davis Field,PUC
Los Alamos Airport,Los Alamos,NM,US,87544,35.87979889,-106.2689972,Los Alamos Airport,LAM
Lake Havasu City Airport,Lake Havasu City,AZ,US,86404,34.571098,-114.358002,Lake Havasu City Airport,HII
Winslow Lindbergh Regional Airport,Winslow,AZ,US,86047,35.02190018,-110.7229996,Winslow Lindbergh Regional Airport,INW
Douglas Municipal Airport,Douglas,AZ,US,85607,31.34259987,-109.5059967,Douglas Municipal Airport,DGL
Bartow Municipal Airport,Bartow,FL,US,33830,27.94339943,-81.78340149,Bartow Municipal Airport,BOW
Livermore Municipal Airport,Livermore,CA,US,94551,37.69340134,-121.8199997,Livermore Municipal Airport,LVK
Mariposa Yosemite Airport,Mariposa,CA,US,95338,37.51089859,-120.0400009,Mariposa Yosemite Airport,RMY
Jacqueline Cochran Regional Airport,Palm Springs,CA,US,92274,33.62670135,-116.1600037,Jacqueline Cochran Regional Airport,TRM
Santa Monica Municipal Airport,Santa Monica,CA,US,90405,34.01580048,-118.4509964,Santa Monica Municipal Airport,SMO
Bermuda Dunes Airport,Palm Springs,CA,US,92203,33.74840164,-116.2750015,Bermuda Dunes Airport,UDD
Scottsdale Airport,Scottsdale,AZ,US,85260,33.6228981,-111.9110031,Scottsdale Airport,ZSY
Olympia Regional Airport,Olympia,WA,US,98501,46.9693985,-122.9029999,Olympia Regional Airport,OLM
Yolo County Davis Woodland Winters Airport,Davis-Woodland-Winters,CA,US,95616,38.57910156,-121.8570023,Yolo County Davis Woodland Winters Airport,DWA
Garfield County Regional Airport,Rifle,CO,US,81650,39.52629852,-107.7269974,Garfield County Regional Airport,RIL
Shively Field,SARATOGA,WY,US,82331,41.44490051,-106.8239975,Shively Field,SAA
DeKalb Peachtree Airport,Atlanta,GA,US,30341,33.87559891,-84.30200195,DeKalb Peachtree Airport,PDK
Monroe County Airport,Bloomington,IN,US,47403,39.14599991,-86.61669922,Monroe County Airport,BMG
Witham Field,Stuart,FL,US,34996,27.18169975,-80.22109985,Witham Field,SUA
Morristown Municipal Airport,Morristown,NJ,US,07960,40.79940033,-74.41490173,Morristown Municipal Airport,MMU
Napa County Airport,Napa,CA,US,94558,38.2132,-122.280998,Napa County Airport,APC
Brown Field Municipal Airport,San Diego,CA,US,92154,32.57229996,-116.9800034,Brown Field Municipal Airport,SDM
Venice Municipal Airport,Venice,FL,US,34285,27.07159996,-82.44029999,Venice Municipal Airport,VNC
Palm Beach County Glades Airport,Pahokee,FL,US,33476,26.78499985,-80.69339752,Palm Beach County Glades Airport,PHK
Northwest Florida Beaches International Airport,Panama City,FL,US,32409,30.357106,-85.795414,Northwest Florida Beaches International Airport,ECP
San Bernardino International Airport,San Bernardino,CA,US,92408,34.09540176,-117.2350006,San Bernardino International Airport,SBD
San Carlos Airport,San Carlos,CA,US,94070,37.51190186,-122.25,San Carlos Airport,SQL
Rocky Mount Wilson Regional Airport,Rocky Mount,NC,US,27803,35.85630035,-77.89189911,Rocky Mount Wilson Regional Airport,RWI
Whittier Airport,Whittier,AK,US,99693,60.77719879,-148.7220001,Whittier Airport,\N
Soldotna Airport,Soldotna,AK,US,99669,60.47570038,-151.0339966,Soldotna Airport,SXQ
Gillespie Field,El Cajon,CA,US,92020,32.82619858,-116.9720001,Gillespie Field,SEE
San Clemente Island Naval Auxiliary Landing Field,San Clemente Island,California,US,,33.02270126,-118.5879974,San Clemente Island Naval Auxiliary Landing Field,\N
Truckee Tahoe Airport,Truckee,CA,US,96161,39.31999969,-120.1399994,Truckee Tahoe Airport,TKF
Cobb County-Mc Collum Field,Atlanta,GA,US,30144,34.01319885,-84.59860229,Cobb County-Mc Collum Field,RYY
Dell Flight Strip,Dell,MT,US,59725,44.7356987,-112.7200012,Dell Flight Strip,4U9
Mission Field,Livingston-Montana,MT,US,59047,45.69940186,-110.447998,Mission Field,LVM
Big Timber Airport,Big Timber,MT,US,59011,45.8064003,-109.9810028,Big Timber Airport,6S0
Tulip City Airport,Holland,MI,US,49423,42.74290085,-86.10739899,Tulip City Airport,BIV
Monument Valley Airport,Monument Valley,UT,US,84536,37.01670074,-110.2009964,Monument Valley Airport,\N
Lakeland Linder Regional Airport,Lakeland,FL,US,33811,27.98889923,-82.01860046,Lakeland Linder Regional Airport,LAL
Indianola Municipal Airport,New York,MS,US,38751,33.485699,-90.678902,Indianola Municipal Airport,IDL
French Valley Airport,Murrieta-Temecula,CA,US,92563,33.57419968,-117.1279984,French Valley Airport,RBK
Carl R Keller Field,Port Clinton,OH,US,43452,41.5163002,-82.86869812,Carl R Keller Field,PCW
Dayton-Wright Brothers Airport,Dayton,OH,US,45342,39.5890007,-84.22489929,Dayton-Wright Brothers Airport,MGY
Richmond Municipal Airport,Richmond,IN,US,47374,39.75719833,-84.84279633,Richmond Municipal Airport,RID
Findlay Airport,Findley,OH,US,45840,41.01350021,-83.66870117,Findlay Airport,FDY
Black Hills Airport-Clyde Ice Field,Spearfish-South Dakota,SD,US,57783,44.4803009,-103.7829971,Black Hills Airport-Clyde Ice Field,SPF
Olive Branch Airport,Olive Branch,MS,US,38654,34.97869873,-89.78690338,Olive Branch Airport,OLV
Rocky Mountain Metropolitan Airport,Broomfield-CO,CO,US,80021,39.90879822,-105.1169968,Rocky Mountain Metropolitan Airport,BJC
Salem Municipal Airport/McNary Field,Salem,OR,US,97302,44.90950012,-123.0029984,Salem Municipal Airport/McNary Field,SLE
Tunica Municipal Airport,Tunica,MS,US,38676,34.68099976,-90.34670258,Tunica Municipal Airport,UTM
Lawrence J Timmerman Airport,Milwaukee,WI,US,53225,43.11040115,-88.03440094,Lawrence J Timmerman Airport,MWC
Southern Wisconsin Regional Airport,Janesville,WI,US,53546,42.62030029,-89.04160309,Southern Wisconsin Regional Airport,JVL
Arlington Municipal Airport,Arlington,TX,US,76018,32.66389847,-97.09429932,Arlington Municipal Airport,GKY
Gwinnett County Briscoe Field,Lawrenceville,GA,US,30043,33.97809982,-83.96240234,Gwinnett County Briscoe Field,LZU
Bowling Green Warren County Regional Airport,Bowling Green,KY,US,42103,36.96450043,-86.41970062,Bowling Green Warren County Regional Airport,BWG
Richard Lloyd Jones Jr Airport,Tulsa,OK,US,74132,36.03960037,-95.98459625,Richard Lloyd Jones Jr Airport,RVS
Bryce Canyon Airport,Bryce Canyon,Utah,US,,37.70640183,-112.1449966,Bryce Canyon Airport,BCE
Burlington Alamance Regional Airport,Burlington,NC,US,27215,36.04850006,-79.47489929,Burlington Alamance Regional Airport,\N
New Century Aircenter Airport,Olathe,KS,US,66030,38.83089828,-94.89029694,New Century Aircenter Airport,JCI
Easton Newnam Field,Easton,MD,US,21601,38.80419922,-76.06900024,Easton Newnam Field,ESN
Yuba County Airport,Yuba City,CA,US,95961,39.09780121,-121.5699997,Yuba County Airport,MYV
Halliburton Field,Duncan,OK,US,73533,34.47090149,-97.9598999,Halliburton Field,DUC
Garner Field,Uvalde,TX,US,78801,29.2112999,-99.74359894,Garner Field,UVA
Lewis University Airport,Lockport,IL,US,60446,41.6072998,-88.09619904,Lewis University Airport,LOT
Buchanan Field,Concord,CA,US,94520,37.98970032,-122.0569992,Buchanan Field,CCR
Ocean Reef Club Airport,Ocean Reef Club Airport,FL,US,33037,25.3253994,-80.27480316,Ocean Reef Club Airport,OCA
Ohio University Snyder Field,Athens,OH,US,45710,39.21099854,-82.23139954,Ohio University Snyder Field,\N
Springfield-Beckley Municipal Airport,Springfield,OH,US,45502,39.84030151,-83.84020233,Springfield-Beckley Municipal Airport,SGH
Philip Billard Municipal Airport,Topeka,KS,US,66616,39.06869888,-95.62249756,Philip Billard Municipal Airport,TOP
Benson Airstrip,Uvalde,TX,US,78801,29.22940063,-99.82389832,Benson Airstrip,\N
Rough River State Park Airport,Null,KY,US,40119,37.610022,-86.507262,Rough River State Park Airport,\N
Smyrna Airport,Smyrna,TN,US,37167,36.00899887,-86.52010345,Smyrna Airport,\N
Franklin County Airport,Sewanee,TN,US,37375,35.20510101,-85.89810181,Franklin County Airport,\N
Collin County Regional At Mc Kinney Airport,DALLAS,TX,US,75069,33.17789841,-96.59049988,Collin County Regional At Mc Kinney Airport,TKI
Chicago Executive Airport,Chicago-Wheeling,IL,US,60090,42.114222,-87.901494,Chicago Executive Airport,PWK
Southwest Washington Regional Airport,Kelso,WA,US,98626,46.11800003,-122.8980026,Southwest Washington Regional Airport,KLS
Wilmington Airpark,Wilmington,OH,US,45177,39.42789841,-83.792099,Wilmington Airpark,ILN
Marana Regional Airport,Tucson,AZ,US,85653,32.4095993,-111.2180023,Marana Regional Airport,AVW
Casa Grande Municipal Airport,Casa Grande,AZ,US,85122,32.954899,-111.766998,Casa Grande Municipal Airport,CGZ
Mobile Airport,Mobile,AZ,US,85239,33.11190033,-112.2689972,Mobile Airport,\N
Buckeye Municipal Airport,Buckeye,AZ,US,85326,33.42039871,-112.685997,Buckeye Municipal Airport,BXK
Gila Bend Municipal Airport,Gila Bend,AZ,US,85337,32.95809937,-112.6780014,Gila Bend Municipal Airport,E63
McMinn County Airport,Athens,TN,US,37303,35.39730072,-84.56259918,McMinn County Airport,MMI
Sterling Municipal Airport,Sterling,CO,US,80751,40.61529922,-103.2649994,Sterling Municipal Airport,STK
Rawlins Municipal Airport/Harvey Field,Rawlins,WY,US,82301,41.80559921,-107.1999969,Rawlins Municipal Airport/Harvey Field,RWL
Essex County Airport,Caldwell,NJ,US,07004,40.87519836,-74.28140259,Essex County Airport,CDW
Lee C Fine Memorial Airport,Kaiser Lake Ozark,MO,US,65017,38.09600067,-92.54949951,Lee C Fine Memorial Airport,AIZ
Thomasville Regional Airport,Thomasville,GA,US,31757,30.90159988,-83.88130188,Thomasville Regional Airport,TVI
Henderson Executive Airport,Henderson,NV,US,89052,35.97280121,-115.1340027,Henderson Executive Airport,HSH
Henry Tift Myers Airport,Tifton,GA,US,31794,31.42900085,-83.4885025,Henry Tift Myers Airport,TMA
Phoenix Deer Valley Airport,Phoenix ,AZ,US,85027,33.68830109,-112.0830002,Phoenix Deer Valley Airport,DVT
Republic Airport,Farmingdale,NY,US,11735,40.72880173,-73.41339874,Republic Airport,\N
South Texas Regional Airport at Hondo,Hondo,TX,US,78861,29.35950089,-99.17669678,South Texas Regional Airport at Hondo,HDO
McKinley National Park Airport,McKinley Park,AK,US,99755,63.73260117,-148.9109955,McKinley National Park Airport,MCL
Lake Hood Seaplane Base,Anchorage,AK,US,99502,61.18000031,-149.9720001,Lake Hood Seaplane Base,LHD
Prospect Creek Airport,Prospect Creek,AK,US,,66.81410217,-150.6439972,Prospect Creek Airport,PPC
Wheeling Ohio County Airport,Wheeling,WV,US,26003,40.17499924,-80.64630127,Wheeling Ohio County Airport,HLG
Fitzgerald Municipal Airport,Fitzgerald,GA,US,31750,31.68370056,-83.27050018,Fitzgerald Municipal Airport,FZG
Aransas County Airport,Rockport,TX,US,78382,28.08679962,-97.04460144,Aransas County Airport,RKP
Crisp County Cordele Airport,Cordele,GA,US,31015,31.98880005,-83.77390289,Crisp County Cordele Airport,CKF
Ormond Beach Municipal Airport,Ormond Beach,FL,US,32174,29.30060005,-81.11360168,Ormond Beach Municipal Airport,OMN
Portland Troutdale Airport,Troutdale,OR,US,97060,45.54940033,-122.401001,Portland Troutdale Airport,TTD
Portland Hillsboro Airport,Hillsboro,OR,US,97124,45.540401,-122.949997,Portland Hillsboro Airport,HIO
One Police Plaza Heliport,New York,NY,US,10038,40.71260071,-73.99960327,One Police Plaza Heliport,\N
Bend Municipal Airport,Bend,OR,US,97701,44.09479904,-121.2009964,Bend Municipal Airport,\N
Christmas Valley Airport,Christmas Valley,OR,US,97641,43.23649979,-120.6660004,Christmas Valley Airport,\N
Burns Municipal Airport,Burns,OR,US,97720,43.59189987,-118.9550018,Burns Municipal Airport,\N
Prineville Airport,Prineville,OR,US,97754,44.28699875,-120.9039993,Prineville Airport,\N
Red Bluff Municipal Airport,Red Bluff,CA,US,96080,40.15069962,-122.2519989,Red Bluff Municipal Airport,\N
Marin County Airport - Gnoss Field,Novato,CA,US,94945,38.14360046,-122.5559998,Marin County Airport - Gnoss Field,\N
Lake County Airport,Lakeview,OR,US,97630,42.16109848,-120.3990021,Lake County Airport,\N
Tillamook Airport,Tillamook,OR,US,97141,45.41820145,-123.814003,Tillamook Airport,\N
Ontario Municipal Airport,Ontario,OR,US,97914,44.02050018,-117.0139999,Ontario Municipal Airport,\N
Columbia Gorge Regional the Dalles Municipal Airport,The Dalles,WA,US,98617,45.61849976,-121.1669998,Columbia Gorge Regional the Dalles Municipal Airport,\N
Montgomery County Airpark,Gaithersburg,MD,US,20879,39.16830063,-77.16600037,Montgomery County Airpark,GAI
Charlevoix Municipal Airport,Charelvoix,MI,US,49720,45.30479813,-85.27480316,Charlevoix Municipal Airport,CVX
Flagler County Airport,Flagler,FL,US,32164,29.4673996,-81.20629883,Flagler County Airport,XFL
Morrisville Stowe State Airport,Morrisville,VT,US,05661,44.5345993,-72.61399841,Morrisville Stowe State Airport,MVL
Dallas Executive Airport,Dallas,TX,US,75237,32.68090057,-96.86820221,Dallas Executive Airport,RBD
Westerly State Airport,Washington County,RI,US,02891,41.34960175,-71.80339813,Westerly State Airport,WST
Block Island State Airport,Block Island,RI,US,02807,41.16809845,-71.57779694,Block Island State Airport,BID
Nightmute Airport,Nightmute,AK,US,99690,60.47100067,-164.701004,Nightmute Airport,NME
Toksook Bay Airport,Toksook Bay,AK,US,99637,60.54140091,-165.0870056,Toksook Bay Airport,OOK
Decatur County Industrial Air Park,Bainbridge,GA,US,39817,30.9715004,-84.63739777,Decatur County Industrial Air Park,BGE
Silver Springs Airport,Silver Springs,NV,US,89429,39.40299988,-119.2509995,Silver Springs Airport,SPZ
Whiteman Airport,Los Angeles,CA,US,91331,34.25930023,-118.413002,Whiteman Airport,WHP
Madera Municipal Airport,Madera,CA,US,93637,36.98860168,-120.1119995,Madera Municipal Airport,MAE
Apalachicola Regional Airport,Apalachicola,FL,US,32320,29.72750092,-85.02749634,Apalachicola Regional Airport,AAF
Douglas Municipal Airport,Douglas,GA,US,31535,31.47669983,-82.86049652,Douglas Municipal Airport,DQH
St Lucie County International Airport,Fort Pierce,FL,US,34946,27.49510002,-80.36830139,St Lucie County International Airport,FRP
Taunton Municipal King Field,Taunton,MA,US,02718,41.87440109,-71.01660156,Taunton Municipal King Field,TAN
Plymouth Municipal Airport,Plymouth,MA,US,02360,41.9090004,-70.72879791,Plymouth Municipal Airport,PYM
Quonset State Airport,North Kingstown,RI,US,02852,41.5970993,-71.41210175,Quonset State Airport,OQU
Norwood Memorial Airport,Norwood,MA,US,02062,42.19049835,-71.17289734,Norwood Memorial Airport,OWD
Barnes Municipal Airport,Westfield,MA,US,01085,42.157799,-72.715599,Barnes Municipal Airport,BAF
Windham Airport,Willimantic,CT,US,06256,41.74399948,-72.18029785,Windham Airport,IJD
Orange County Airport,Montgomery,NY,US,12549,41.50999832,-74.26460266,Orange County Airport,MGJ
Capital City Airport,Harrisburg,PA,US,17057,40.21709824,-76.85150146,Capital City Airport,CXY
Marshfield Municipal George Harlow Field,Marshfield,MA,US,02050,42.09830093,-70.67220306,Marshfield Municipal George Harlow Field,GHG
Danbury Municipal Airport,Danbury,CT,US,06810,41.37149811,-73.48220062,Danbury Municipal Airport,DXR
Boire Field,Nashua,NH,US,03063,42.78170013,-71.51480103,Boire Field,ASH
Lawrence Municipal Airport,Lawrence,MA,US,01845,42.71720123,-71.12339783,Lawrence Municipal Airport,LWM
Waterbury Oxford Airport,Oxford,CT,US,06478,41.47859955,-73.1352005,Waterbury Oxford Airport,OXC
Fitchburg Municipal Airport,Fitchburg,MA,US,01420,42.55410004,-71.75900269,Fitchburg Municipal Airport,FIT
Earl L. Small Jr. Field/Stockmar Airport,Villa Rica,GA,US,30180,33.75650024,-84.88469696,Earl L. Small Jr. Field/Stockmar Airport,\N
Cartersville Airport,Cartersville,GA,US,30120,34.12310028,-84.84870148,Cartersville Airport,VPC
Centre-Piedmont-Cherokee County Regional Airport,Centre,AL,US,35960,34.089977,-85.610069,Centre-Piedmont-Cherokee County Regional Airport,PYP
Richard B Russell Airport,Rome,GA,US,30165,34.3506012,-85.15799713,Richard B Russell Airport,RMG
Northeast Alabama Regional Airport,Gadsden,AL,US,35904,33.972599,-86.088996,Northeast Alabama Regional Airport,GAD
Knoxville Downtown Island Airport,Knoxville,TN,US,37920,35.96390152,-83.87390137,Knoxville Downtown Island Airport,DKX
Barrow County Airport,Winder,GA,US,30680,33.98289871,-83.66739655,Barrow County Airport,WDR
Plantation Airpark,Sylvania,GA,US,30467,32.64530182,-81.5970993,Plantation Airpark,JYL
Dalton Municipal Airport,Dalton,GA,US,30721,34.72290039,-84.87020111,Dalton Municipal Airport,DNN
West Georgia Regional O V Gray Field,Carrollton,GA,US,30117,33.63100052,-85.15200043,West Georgia Regional O V Gray Field,CTJ
Lagrange Callaway Airport,LaGrange,GA,US,30240,33.00889969,-85.07260132,Lagrange Callaway Airport,LGC
Baldwin County Airport,Milledgeville,GA,US,31061,33.15420151,-83.24069977,Baldwin County Airport,MLJ
Harris County Airport,Pine Mountain,GA,US,31822,32.84069824,-84.88240051,Harris County Airport,PIM
Peachtree City Falcon Field,Atlanta,GA,US,30269,33.3572998,-84.57180023,Peachtree City Falcon Field,FFC
Lee Gilmer Memorial Airport,Gainesville,GA,US,30501,34.27259827,-83.8302002,Lee Gilmer Memorial Airport,GVL
Harry Clever Field,New Philadelpha,OH,US,44663,40.47090149,-81.41970062,Harry Clever Field,PHD
Darlington County Jetport Airport,Darlington,SC,US,29593,34.44940186,-79.89009857,Darlington County Jetport Airport,UDG
Hilton Head Airport,Hilton Head Island,SC,US,29926,32.22439957,-80.69750214,Hilton Head Airport,HHH
Daniel Field,Augusta,GA,US,30904,33.46649933,-82.03939819,Daniel Field,DNL
Foothills Regional Airport,Morganton,NC,US,28655,35.82020187,-81.61139679,Foothills Regional Airport,MRN
Pike County-Hatcher Field,Pikeville,KY,US,41501,37.5617981,-82.56639862,Pike County-Hatcher Field,PBX
Mallards Landing Airport,Locust Grove,GA,US,30248,33.36569977,-84.16519928,Mallards Landing Airport,\N
Toccoa Airport - R.G. Letourneau Field,Toccoa,GA,US,30577,34.59379959,-83.29579926,Toccoa Airport - R.G. Letourneau Field,TOC
Fort Worth Alliance Airport,Fort Worth,TX,US,76177,32.98759842,-97.31880188,Fort Worth Alliance Airport,AFW
East Troy Municipal Airport,East Troy,WI,US,53120,42.79719925,-88.37259674,East Troy Municipal Airport,57C
Lawrence Municipal Airport,Lawrence,KS,US,66044,39.01119995,-95.21659851,Lawrence Municipal Airport,LWC
Wellington Municipal Airport,Wellington,KS,US,67152,37.32360077,-97.38829803,Wellington Municipal Airport,EGT
Pompano Beach Airpark,Pompano Beach,FL,US,33060,26.24710083,-80.11109924,Pompano Beach Airpark,PMP
Shelby County Airport,Alabaster,AL,US,35007,33.17699814,-86.78279877,Shelby County Airport,EET
Sky Ranch At Carefree Airport,Carefree,AZ,US,85266,33.81809998,-111.8980026,Sky Ranch At Carefree Airport,\N
Indianapolis Metropolitan Airport,Indianapolis,IN,US,46038,39.93519974,-86.04499817,Indianapolis Metropolitan Airport,UMP
London-Corbin Airport/Magee Field,London,KY,US,40744,37.0821991,-84.0848999,London-Corbin Airport/Magee Field,LOZ
Simmons Army Air Field,Fredericksburg,NC,US,28310,35.13180161,-78.93669891,Simmons Army Air Field,FBG
John H Batten Airport,Racine,WI,US,53404,42.76060104,-87.81520081,John H Batten Airport,RAC
Redlands Municipal Airport,Redlands,CA,US,92374,34.08530045,-117.1460037,Redlands Municipal Airport,REI
Flabob Airport,Riverside,CA,US,92509,33.98970032,-117.4110031,Flabob Airport,RIR
Tacoma Narrows Airport,Tacoma,WA,US,98335,47.26789856,-122.5780029,Tacoma Narrows Airport,TIW
Jack Edwards Airport,Gulf Shores,AL,US,36542,30.29050064,-87.67179871,Jack Edwards Airport,JKA
Hazleton Municipal Airport,Hazleton,PA,US,18202,40.98680115,-75.99490356,Hazleton Municipal Airport,HZL
Greater Cumberland Regional Airport,Cumberland,WV,US,26767,39.61539841,-78.7609024,Greater Cumberland Regional Airport,CBE
Sugar Loaf Shores Airport,Key West,FL,US,33042,24.6487999,-81.57980347,Sugar Loaf Shores Airport,\N
Tri-County Regional Airport,Lone Rock,WI,US,53588,43.21170044,-90.18160248,Tri-County Regional Airport,LNR
Price County Airport,Phillips,WI,US,54555,45.70899963,-90.40249634,Price County Airport,\N
Monroe Municipal Airport,Monroe,WI,US,53566,42.61489868,-89.5904007,Monroe Municipal Airport,\N
Joliet Regional Airport,Joliet,IL,US,60431,41.51779938,-88.17549896,Joliet Regional Airport,JOT
Illinois Valley Regional Airport-Walter A Duncan Field,Peru,IL,US,61354,41.351898,-89.153099,Illinois Valley Regional Airport-Walter A Duncan Field,VYS
Jackson County Reynolds Field,Jackson,MI,US,49202,42.25979996,-84.45939636,Jackson County Reynolds Field,JXN
Joseph A. Hardy Connellsville Airport,Connellsville,PA,US,15456,39.95920181,-79.65709686,Joseph A. Hardy Connellsville Airport,\N
Bedford County Airport,Bedford,PA,US,15522,40.08530045,-78.5121994,Bedford County Airport,\N
Wings Field,Philadelphia,PA,US,19422,40.13750076,-75.26509857,Wings Field,BBX
Okeechobee County Airport,Okeechobee,FL,US,34972,27.26280022,-80.84980011,Okeechobee County Airport,OBE
Sebring Regional Airport,Sebring,FL,US,33870,27.45639992,-81.3423996,Sebring Regional Airport,SEF
Avon Park Executive Airport,Avon Park,FL,US,33825,27.59119987,-81.52780151,Avon Park Executive Airport,AVO
Winter Haven Municipal Airport - Gilbert Field,Winter Haven,FL,US,33881,28.06290054,-81.75330353,Winter Haven Municipal Airport - Gilbert Field,GIF
Zephyrhills Municipal Airport,Zephyrhills,FL,US,33542,28.22820091,-82.15589905,Zephyrhills Municipal Airport,ZPH
Ocala International Airport - Jim Taylor Field,Ocala,FL,US,34474,29.17259979,-82.22419739,Ocala International Airport - Jim Taylor Field,OCF
Jesup Wayne County Airport,Jesup,GA,US,31546,31.55400085,-81.88249969,Jesup Wayne County Airport,JES
Madison Municipal Airport,Madison,GA,US,30650,33.61209869,-83.46040344,Madison Municipal Airport,52A
Newnan Coweta County Airport,Newnan,GA,US,30263,33.31159973,-84.76979828,Newnan Coweta County Airport,CCO
Thomson-McDuffie County Airport,Thomson,GA,US,30824,33.52970123,-82.51650238,Thomson-McDuffie County Airport,HQU
Aiken Municipal Airport,Aiken,SC,US,29805,33.6493988,-81.68499756,Aiken Municipal Airport,AIK
Woodward Field,Camden,SC,US,29020,34.28359985,-80.56490326,Woodward Field,CDN
Lumberton Regional Airport,Lumberton,NC,US,28358,34.60990143,-79.05940247,Lumberton Regional Airport,LBT
Moore County Airport,Pinehurst-Southern Pines,NC,US,28327,35.23740005,-79.3911972,Moore County Airport,SOP
Richmond County Airport,Rockingham,NC,US,28379,34.8913,-79.759598,Richmond County Airport,RCZ
Baraboo Wisconsin Dells Airport,Baraboo,WI,US,53913,43.52270126,-89.77020264,Baraboo Wisconsin Dells Airport,DLL
Statesville Regional Airport,Statesville,NC,US,28677,35.76530075,-80.9539032,Statesville Regional Airport,SVH
Burlington Municipal Airport,Burlington,WI,US,53105,42.69070053,-88.30460358,Burlington Municipal Airport,BUU
William T. Piper Memorial Airport,Lock Haven,PA,US,17745,41.13560104,-77.42230225,William T. Piper Memorial Airport,LHV
Zelienople Municipal Airport,Zelienople,PA,US,16063,40.80160141,-80.16069794,Zelienople Municipal Airport,\N
Lorain County Regional Airport,Lorain-Elyria,OH,US,44035,41.34429932,-82.17759705,Lorain County Regional Airport,LPR
Burke Lakefront Airport,Cleveland,OH,US,44114,41.51750183,-81.6832962,Burke Lakefront Airport,BKL
Chautauqua County-Dunkirk Airport,Dunkirk,NY,US,14048,42.49330139,-79.27200317,Chautauqua County-Dunkirk Airport,DKK
South Jersey Regional Airport,Mount Holly,NJ,US,08048,39.94290161,-74.84570313,South Jersey Regional Airport,VAY
Linden Airport,Linden,NJ,US,07036,40.61740112,-74.24459839,Linden Airport,LDJ
Tri State Steuben County Airport,Angola,IN,US,46703,41.639702,-85.083504,Tri State Steuben County Airport,ANQ
Warsaw Municipal Airport,Warsaw,IN,US,46582,41.27470016,-85.84010315,Warsaw Municipal Airport,\N
Van Wert County Airport,Van Wert,OH,US,45891,40.86470032,-84.60939789,Van Wert County Airport,VNW
Brooks Field,Marshall,MI,US,49068,42.25120163,-84.95549774,Brooks Field,\N
Genesee County Airport,Batavia,NY,US,14020,43.03170013,-78.16760254,Genesee County Airport,GVQ
Clearwater Air Park,Clearwater,FL,US,33755,27.97669983,-82.75869751,Clearwater Air Park,CLW
Chicago Meigs Airport,Chicago,IL,US,60605,41.85879898,-87.60790253,Chicago Meigs Airport,CGX
Pickens County Airport,Jasper,GA,US,30143,34.45339966,-84.45739746,Pickens County Airport,JZP
Grand Strand Airport,North Myrtle Beach,SC,US,29582,33.81169891,-78.72389984,Grand Strand Airport,CRE
Lansing Municipal Airport,Lansing,IL,US,60411,41.53490067,-87.52950287,Lansing Municipal Airport,IGQ
Ramona Airport,Ramona,CA,US,92065,33.03919983,-116.9150009,Ramona Airport,RNM
Branch County Memorial Airport,Coldwater,MI,US,49036,41.9333992,-85.05259705,Branch County Memorial Airport,OEB
Wilkes Barre Wyoming Valley Airport,Wilkes-Barre,PA,US,18644,41.29719925,-75.85119629,Wilkes Barre Wyoming Valley Airport,WBW
Willoughby Lost Nation Municipal Airport,Willoughby,OH,US,44060,41.68399811,-81.38970184,Willoughby Lost Nation Municipal Airport,LNN
Capital City Airport,Frankfort,KY,US,40601,38.18249893,-84.90470123,Capital City Airport,FFT
Auburn Lewiston Municipal Airport,Lewiston,ME,US,04210,44.04850006,-70.28350067,Auburn Lewiston Municipal Airport,LEW
Bloyer Field,Tomah,WI,US,54660,43.97499847,-90.48349762,Bloyer Field,\N
Marco Island Airport,Marco Island Airport,FL,US,34114,25.99500084,-81.67250061,Marco Island Airport,MRK
Drummond Island Airport,Drummond Island,MI,US,49726,46.00930023,-83.74389648,Drummond Island Airport,DRM
Gladwin Zettel Memorial Airport,Gladwin,MI,US,48624,43.97060013,-84.47499847,Gladwin Zettel Memorial Airport,GDW
South Haven Area Regional Airport,South Haven,MI,US,49090,42.3512001,-86.25569916,South Haven Area Regional Airport,LWA
Marshfield Municipal Airport,Marshfield,WI,US,54449,44.63690186,-90.18930054,Marshfield Municipal Airport,MFI
Alexander Field South Wood County Airport,Wisconsin Rapids,WI,US,54494,44.36029816,-89.83899689,Alexander Field South Wood County Airport,ISW
Clinton Municipal Airport,Clinton,IA,US,52732,41.83110046,-90.32910156,Clinton Municipal Airport,CWI
Beverly Municipal Airport,Beverly,MA,US,01923,42.58420181,-70.91649628,Beverly Municipal Airport,BVY
Poplar Bluff Municipal Airport,Poplar Bluff,MO,US,63901,36.77389908,-90.32489777,Poplar Bluff Municipal Airport,POF
Somerset Airport,Somerville,NJ,US,07921,40.62599945,-74.67019653,Somerset Airport,\N
Eastport Municipal Airport,Eastport,ME,US,04631,44.91009903,-67.01270294,Eastport Municipal Airport,EPM
Keokuk Municipal Airport,Keokuk,IA,US,52632,40.4598999,-91.42849731,Keokuk Municipal Airport,EOK
St Paul Downtown Holman Field,St. Paul,MN,US,55107,44.93450165,-93.05999756,St Paul Downtown Holman Field,STP
Oconomowoc Airport,Oconomowoc,WI,US,53066,43.13890076,-88.47229767,Oconomowoc Airport,\N
Butler Co Regional Airport - Hogan Field,Hamilton,OH,US,45015,39.36380005,-84.52200317,Butler Co Regional Airport - Hogan Field,\N
Fond du Lac County Airport,Fond du Lac,WI,US,54937,43.77119827,-88.48840332,Fond du Lac County Airport,FLD
Waupaca Municipal Airport,Waupaca,WI,US,54981,44.33330154,-89.01979828,Waupaca Municipal Airport,PCZ
Stevens Point Municipal Airport,Stevens Point,WI,US,54482,44.54520035,-89.53029633,Stevens Point Municipal Airport,STE
Luce County Airport,Newberry,MI,US,49868,46.31119919,-85.45729828,Luce County Airport,ERY
Galion Municipal Airport,Galion,OH,US,44833,40.7533989,-82.72380066,Galion Municipal Airport,GQQ
ClarksvilleðððMontgomery County Regional Airport,Clarksville,TN,US,37042,36.62189865,-87.41500092,ClarksvilleðððMontgomery County Regional Airport,CKV
Lompoc Airport,Lompoc,CA,US,93436,34.66559982,-120.4680023,Lompoc Airport,LPC
Chester County G O Carlson Airport,Coatesville,PA,US,19320,39.97900009,-75.8655014,Chester County G O Carlson Airport,CTH
Lake Placid Airport,Lake Placid,NY,US,12946,44.26449966,-73.9618988,Lake Placid Airport,LKP
Lima Allen County Airport,Lima,OH,US,45804,40.706902,-84.026703,Lima Allen County Airport,AOH
Malcolm McKinnon Airport,Brunswick,GA,US,31522,31.15180016,-81.39129639,Malcolm McKinnon Airport,SSI
Beaver County Airport,Beaver Falls,PA,US,15010,40.77249908,-80.3914032,Beaver County Airport,BFP
Georgetown County Airport,Georgetown,SC,US,29440,33.31169891,-79.31960297,Georgetown County Airport,GGE
Hardwick Field,Cleveland,TN,US,37312,35.2201004,-84.83239746,Hardwick Field,HDI
Renton Municipal Airport,Renton,WA,US,98057,47.49309921,-122.2160034,Renton Municipal Airport,RNT
Brackett Field,La Verne,CA,US,91750,34.09159851,-117.7819977,Brackett Field,POC
Cross City Airport,Cross City,FL,US,32628,29.63549995,-83.10479736,Cross City Airport,CTY
Oconee County Regional Airport,Clemson,SC,US,29678,34.6719017,-82.8864975,Oconee County Regional Airport,CEU
Beech Factory Airport,Wichita,KS,US,67206,37.69449997,-97.21499634,Beech Factory Airport,BEC
Tom B. David Field,Calhoun,GA,US,30701,34.45539856,-84.93920135,Tom B. David Field,\N
Habersham County Airport,Cornelia,GA,US,30531,34.49990082,-83.55670166,Habersham County Airport,\N
Georgetown Municipal Airport,Georgetown,TX,US,78628,30.67880058,-97.67939758,Georgetown Municipal Airport,GTU
Old Rhinebeck Airport,Rhinebeck,NY,US,12571,41.9715004,-73.86289978,Old Rhinebeck Airport,\N
Sidney Municipal-Lloyd W Carr Field,Sidney,NE,US,69162,41.10129929,-102.9850006,Sidney Municipal-Lloyd W Carr Field,SNY
Kalaeloa Airport,Kapolei,HI,US,96707,21.3074,-158.070009,Kalaeloa Airport,\N
Iosco County Airport,East Tawas,MI,US,48730,44.312801,-83.422302,Iosco County Airport,ECA
Madison County Executive Airport-Tom Sharp Jr Field,Huntsville,AL,US,35759,34.8614006,-86.55750275,Madison County Executive Airport-Tom Sharp Jr Field,\N
Leesburg Executive Airport,Leesburg,VA,US,20175,39.07799911,-77.55750275,Leesburg Executive Airport,JYO
Anoka County-Blaine Arpt(Janes Field) Airport,Anoka,MN,US,55449,45.14500046,-93.21140289,Anoka County-Blaine Arpt(Janes Field) Airport,\N
Williamson Sodus Airport,Williamson,NY,US,14589,43.23469925,-77.1210022,Williamson Sodus Airport,SDC
Boulder Municipal Airport,Boulder,CO,US,80301,40.03939819,-105.2259979,Boulder Municipal Airport,WBU
Palo Alto Airport of Santa Clara County,Palo Alto,CA,US,94303,37.46110153,-122.1149979,Palo Alto Airport of Santa Clara County,PAO
Falcon Field,Mesa,AZ,US,85215,33.46080017,-111.7279968,Falcon Field,FFZ
Coolidge Municipal Airport,Cooldige,AZ,US,85132,32.93590164,-111.427002,Coolidge Municipal Airport,P08
Cottonwood Airport,Cottonwood,AZ,US,86326,34.72999954,-112.0350037,Cottonwood Airport,P52
Ak-Chin Regional Airport,Phoenix,AZ,US,85138,32.9908056,-111.9185278,Ak-Chin Regional Airport,A39
Wickenburg Municipal Airport,Wickenburg,AZ,US,85390,33.96889877,-112.7990036,Wickenburg Municipal Airport,E25
Oakland County International Airport,Pontiac,MI,US,48327,42.66550064,-83.42009735,Oakland County International Airport,PTK
Dillant Hopkins Airport,Keene,NH,US,03431,42.89839935,-72.27079773,Dillant Hopkins Airport,EEN
Glasgow Industrial Airport,Glasgow,MT,US,59230,48.42110062,-106.5279999,Glasgow Industrial Airport,\N
Iowa City Municipal Airport,Iowa City,IA,US,52246,41.6391983,-91.54650116,Iowa City Municipal Airport,IOW
Windom Municipal Airport,Windom,MN,US,56101,43.91339874,-95.10939789,Windom Municipal Airport,MWM
Longview Ranch Airport,Longview,OR,US,97848,44.6617012,-119.6520004,Longview Ranch Airport,\N
Lee Airport,Annapolis,MD,US,21037,38.942902,-76.568398,Lee Airport,ANP
Pecos Municipal Airport,Pecos,TX,US,79772,31.38240051,-103.5110016,Pecos Municipal Airport,PEQ
Hattiesburg Bobby L Chain Municipal Airport,Hattiesburg,MS,US,39401,31.26479912,-89.25279999,Hattiesburg Bobby L Chain Municipal Airport,HBG
Chan Gurney Municipal Airport,Yankton,SD,US,57078,42.91669846,-97.3859024,Chan Gurney Municipal Airport,YKN
Hayward Executive Airport,Hayward,CA,US,94545,37.65919876,-122.1220016,Hayward Executive Airport,HWD
Ann Arbor Municipal Airport,Ann Arbor,MI,US,48108,42.22299957,-83.74559784,Ann Arbor Municipal Airport,ARB
Atlanta South Regional Airport/Tara Field,Hampton,GA,US,30228,33.389099,-84.332397,Atlanta South Regional Airport/Tara Field,4A7
Comarapa Airport,Salt Lake City,Comarapa,US,,-17.91360092,-64.51779938,Comarapa Airport,\N
Immokalee Regional Airport,Immokalee ,FL,US,34142,26.43320084,-81.40100098,Immokalee Regional Airport,IMM
Rancho San Simeon Airport,Cambria,CA,US,93428,35.60770035,-121.1100006,Rancho San Simeon Airport,\N
Dinwiddie County Airport,Petersburg,VA,US,23803,37.18379974,-77.50740051,Dinwiddie County Airport,PTB
Sheboygan County Memorial Airport,Sheboygan,WI,US,53085,43.76959991,-87.85140228,Sheboygan County Memorial Airport,SBM
Pinal Airpark,Marana,AZ,US,85653,32.51060104,-111.3280029,Pinal Airpark,MZJ
Glendale Municipal Airport,Glendale,AZ,US,85307,33.52690125,-112.2949982,Glendale Municipal Airport,GEU
Safford Regional Airport,Safford,AZ,US,85546,32.85480118,-109.6350021,Safford Regional Airport,SAD
Sikeston Memorial Municipal Airport,Sikeston,MO,US,63801,36.89889908,-89.5617981,Sikeston Memorial Municipal Airport,SIK
Floyd Bennett Memorial Airport,Queensbury,NY,US,12804,43.34120178,-73.61029816,Floyd Bennett Memorial Airport,GFL
Saratoga County Airport,Ballston Spa,NY,US,12866,43.05130005,-73.86119843,Saratoga County Airport,5B2
Crystal River Airport,Crystal River,FL,US,34429,28.86730003,-82.57129669,Crystal River Airport,CGC
Martin State Airport,Baltimore,MD,US,21220,39.32569885,-76.4138031,Martin State Airport,MTN
Lincoln Regional Karl Harder Field,Lincoln,CA,US,95648,38.90919876,-121.3509979,Lincoln Regional Karl Harder Field,LHM
Fostoria Metropolitan Airport,Fostoria,OH,US,44830,41.19079971,-83.39450073,Fostoria Metropolitan Airport,FZI
Eastern Slopes Regional Airport,Fryeburg,ME,US,04037,43.99110031,-70.94789886,Eastern Slopes Regional Airport,IZG
Coral Creek Airport,Placida,FL,US,33946,26.85449982,-82.25119781,Coral Creek Airport,\N
Lakefront Airport,New Orleans,LA,US,70126,30.04240036,-90.02829742,Lakefront Airport,NEW
Coeur D'Alene - Pappy Boyington Field,Coeur d'Alene,ID,US,83835,47.77429962,-116.8199997,Coeur D'Alene - Pappy Boyington Field,COE
Beaumont Municipal Airport,Beaumont,TX,US,77713,30.07069969,-94.21579742,Beaumont Municipal Airport,BMT
Vermilion Regional Airport,Danville,IL,US,61834,40.19919968,-87.59590149,Vermilion Regional Airport,DNV
Space Coast Regional Airport,Titusville,FL,US,32780,28.51479912,-80.79920197,Space Coast Regional Airport,TIX
Andrau Airpark,Houston,TX,US,77082,29.72249985,-95.58830261,Andrau Airpark,AAP
Flying Cloud Airport,Eden Prairie,MN,US,55347,44.82720184,-93.45709991,Flying Cloud Airport,FCM
Johnson County Executive Airport,Olathe,KS,US,66221,38.84759903,-94.73760223,Johnson County Executive Airport,OJC
Brandywine Airport,West Goshen Township,PA,US,19380,39.99010086,-75.58190155,Brandywine Airport,OQN
Manassas Regional Airport/Harry P. Davis Field,Manassas,VA,US,20110,38.72140121,-77.51540375,Manassas Regional Airport/Harry P. Davis Field,MNZ
Texas Gulf Coast Regional Airport,Angleton,TX,US,77515,29.10860062,-95.46209717,Texas Gulf Coast Regional Airport,\N
Shelby County Airport,Shelbyville,IL,US,62565,39.41040039,-88.84539795,Shelby County Airport,2H0
Enumclaw Airport,Enumclaw,WA,US,98022,47.1957016,-122.0220032,Enumclaw Airport,\N
Fairfield County Airport,Winnsboro,SC,US,29180,34.31549835,-81.1088028,Fairfield County Airport,FDW
Skyhaven Airport,Rochester,NH,US,03867,43.28409958,-70.9292984,Skyhaven Airport,DAW
Newton City-County Airport,Newton,KS,US,67114,38.05820084,-97.27449799,Newton City-County Airport,EWK
Taszððr Air Base,Columbus,Unnamed,US,,46.39310074,17.91749954,Taszððr Air Base,TZR
Fort Bridger Airport,Fort Bridger,WY,US,82937,41.39189911,-110.4069977,Fort Bridger Airport,FBR
Prosser Airport,Prosser,WA,US,99350,46.21340179,-119.7910004,Prosser Airport,S40
Chehalis Centralia Airport,Chehalis,WA,US,98532,46.67699814,-122.9830017,Chehalis Centralia Airport,CLS
Desert Aire Airport,Mattawa,WA,US,99349,46.68740082,-119.9209976,Desert Aire Airport,M94
Evanston-Uinta County Airport-Burns Field,Evanston,WY,US,82930,41.27479935,-111.0350037,Evanston-Uinta County Airport-Burns Field,EVW
Sabetha Municipal Airport,Sabetha,KS,US,66534,39.90420151,-95.77940369,Sabetha Municipal Airport,K83
Mt Pleasant Regional-Faison field,Mount Pleasant,SC,US,29466,32.89780045,-79.78289795,Mt Pleasant Regional-Faison field,LRO
Souther Field,Americus,GA,US,31719,32.1108017,-84.18890381,Souther Field,\N
Weedon Field,Eufala,AL,US,36027,31.95129967,-85.12889862,Weedon Field,EUF
Saluda County Airport,Saluda,SC,US,29138,33.92679977,-81.79460144,Saluda County Airport,6J4
Dare County Regional Airport,Manteo,NC,US,27954,35.91899872,-75.69550323,Dare County Regional Airport,MEO
Auburn Opelika Robert G. Pitts Airport,Auburn,AL,US,36801,32.61510086,-85.43399811,Auburn Opelika Robert G. Pitts Airport,AUO
Tri Cities Airport,Endicott,NY,US,13760,42.078499,-76.096296,Tri Cities Airport,CZG
Bessemer Airport,Bessemer,AL,US,35022,33.31290054,-86.92590332,Bessemer Airport,EKY
Colorado Springs East Airport,Ellicott,CO,US,80808,38.87440109,-104.4100037,Colorado Springs East Airport,A50
Crystal Airport,Crystal,MN,US,55429,45.06200027,-93.35389709,Crystal Airport,MIC
Clarke County Airport,Quitman,MS,US,39355,32.0848999,-88.73889923,Clarke County Airport,23M
W H 'Bud' Barron Airport,Dublin,GA,US,31021,32.56439972,-82.98529816,W H 'Bud' Barron Airport,DBN
Corvallis Municipal Airport,Corvallis,OR,US,97333,44.49720001,-123.2900009,Corvallis Municipal Airport,CVO
El Almendro Airport,Scranton,VII,US,,-35.96055603,-71.79333496,El Almendro Airport,\N
San Agustin Airport,Morristown,Provincia,US,,10.0666666,-84.8833313,San Agustin Airport,\N
Cowra Airport,Chatsworth,Cowra,US,,-33.84469986,148.6490021,Cowra Airport,CWT
Ogden Hinckley Airport,Ogden,UT,US,84405,41.19589996,-112.012001,Ogden Hinckley Airport,OGD
Robert S Kerr Airport,Poteau,OK,US,74953,35.02159882,-94.62129974,Robert S Kerr Airport,RKR
Colorado Plains Regional Airport,Akron,CO,US,80720,40.17559814,-103.2220001,Colorado Plains Regional Airport,AKO
Sanderson Field,Shelton,WA,US,98584,47.23360062,-123.1480026,Sanderson Field,SHN
Napakiak Airport,Napakiak,AK,US,99634,60.69029999,-161.9790039,Napakiak Airport,WNA
Napaskiak Airport,Napaskiak,AK,US,99559,60.70289993,-161.7779999,Napaskiak Airport,PKA
Tok Airport,Tok,AK,US,99780,63.303333,-143.001111,Tok Airport,\N
Causey Airport,Liberty,NC,US,27298,35.91180038,-79.61759949,Causey Airport,2A5
Doylestown Airport,Doylestown,PA,US,18902,40.33300018,-75.12229919,Doylestown Airport,DYL
Warren Field,Washington,NC,US,27889,35.57049942,-77.04979706,Warren Field,OCW
Hyde County Airport,Engelhard,NC,US,27824,35.56240082,-75.9552002,Hyde County Airport,7W6
Stillwater Regional Airport,Stillwater,OK,US,74075,36.16120148,-97.08570099,Stillwater Regional Airport,\N
Okmulgee Regional Airport,Okmulgee,OK,US,74447,35.66809845,-95.94869995,Okmulgee Regional Airport,\N
Cushing Municipal Airport,Cushing,OK,US,74023,35.94990158,-96.77310181,Cushing Municipal Airport,\N
Clinton Sherman Airport,Clinton,OK,US,73647,35.33980179,-99.20050049,Clinton Sherman Airport,\N
Strother Field,Winfield,KS,US,67156,37.16859818,-97.03759766,Strother Field,\N
Wiley Post Airport,Oklahoma City,OK,US,73008,35.53419876,-97.64710236,Wiley Post Airport,\N
Shreveport Downtown Airport,Shreveport,LA,US,71107,32.54019928,-93.74500275,Shreveport Downtown Airport,\N
Stephenville Clark Regional Airport,Stephenville,TX,US,76401,32.21530151,-98.17769623,Stephenville Clark Regional Airport,\N
Perry Municipal Airport,Perry,OK,US,73077,36.38560104,-97.27719879,Perry Municipal Airport,\N
Hamilton Municipal Airport,Hamilton,TX,US,76531,31.66589928,-98.14859772,Hamilton Municipal Airport,\N
Ada Municipal Airport,Ada,OK,US,74820,34.8042984,-96.6713028,Ada Municipal Airport,\N
Mesquite Metro Airport,Misquite,TX,US,75181,32.74700165,-96.53040314,Mesquite Metro Airport,\N
Denton Municipal Airport,Denton,TX,US,76207,33.20069885,-97.19799805,Denton Municipal Airport,\N
Austin Executive Airport,Austin,TX,US,78653,30.3974931,-97.5663935,Austin Executive Airport,\N
Lago Vista Tx Rusty Allen Airport,Lago Vista,TX,US,78645,30.49860001,-97.96949768,Lago Vista Tx Rusty Allen Airport,\N
Brenham Municipal Airport,Brenham,TX,US,77833,30.21899986,-96.3742981,Brenham Municipal Airport,\N
Lakeway Airpark,Lakeway,TX,US,78734,30.35750008,-97.99449921,Lakeway Airpark,\N
Iraan Municipal Airport,Iraan,TX,US,79744,30.90570068,-101.8919983,Iraan Municipal Airport,\N
Kestrel Airpark,San Antonio,TX,US,78070,29.81270027,-98.4253006,Kestrel Airpark,\N
Wilkes County Airport,North Wilkesboro,NC,US,28659,36.22280121,-81.09829712,Wilkes County Airport,UKF
Charleston Executive Airport,Charleston,SC,US,29455,32.70090103,-80.00289917,Charleston Executive Airport,JZI
Danville Regional Airport,Danville,VA,US,24586,36.57289886,-79.33609772,Danville Regional Airport,DAN
Brookneal/Campbell County Airport,Brookneal,VA,US,24554,37.14170074,-79.0164032,Brookneal/Campbell County Airport,0V4
Cheraw Municipal Airport/Lynch Bellinger Field,Cheraw,SC,US,29520,34.71289825,-79.95700073,Cheraw Municipal Airport/Lynch Bellinger Field,CQW
Wauchula Municipal Airport,Wuchula,FL,US,33873,27.51490021,-81.88050079,Wauchula Municipal Airport,\N
Conway Horry County Airport,Conway,SC,US,29527,33.82849884,-79.12220001,Conway Horry County Airport,HYW
Asheboro Regional Airport,Asheboro,NC,US,27205,35.65449905,-79.8946991,Asheboro Regional Airport,HBI
Henderson Field,Wallace,NC,US,28466,34.71789932,-78.00360107,Henderson Field,\N
Emporia Greensville Regional Airport,Emporia,VA,US,23847,36.68690109,-77.48280334,Emporia Greensville Regional Airport,EMV
El Monte Airport,El Monte,CA,US,91731,34.08610153,-118.0350037,El Monte Airport,EMT
Kee Field,Pineville,WV,US,24818,37.60039902,-81.55930328,Kee Field,I16
Stinson Municipal Airport,Stinson,TX,US,78234,29.33699989,-98.47109985,Stinson Municipal Airport,SSF
Sallisaw Municipal Airport,Sallisaw,OK,US,74955,35.4382019,-94.80280304,Sallisaw Municipal Airport,JSV
Jasper County Airport-Bell Field,Jasper,TX,US,75951,30.88570023,-94.03489685,Jasper County Airport-Bell Field,JAS
El Dorado Springs Memorial Airport,El dorado springs,MO,US,64744,37.8567009,-93.99909973,El Dorado Springs Memorial Airport,87K
Marfa Municipal Airport,Marfa,TX,US,79843,30.371099,-104.017997,Marfa Municipal Airport,MRF
Alpine Casparis Municipal Airport,Alpine,TX,US,79830,30.38419914,-103.6839981,Alpine Casparis Municipal Airport,E38
Cable Airport,Upland,CA,US,91786,34.11159897,-117.6880035,Cable Airport,CCB
Mount Sterling Montgomery County Airport,Mount Sterling,KY,US,40353,38.05810165,-83.979599,Mount Sterling Montgomery County Airport,IOB
Elkhart Municipal Airport,Elkhart,IN,US,46514,41.7193985,-86.00319672,Elkhart Municipal Airport,EKI
Nappanee Municipal Airport,Nappanee ,IN,US,46550,41.44620132,-85.93479919,Nappanee Municipal Airport,C03
Jim Hamilton L.B. Owens Airport,Columbia,SC,US,29205,33.97050095,-80.99520111,Jim Hamilton L.B. Owens Airport,CUB
Grove Municipal Airport,Grove,OK,US,74344,36.60680008,-94.73860168,Grove Municipal Airport,GMJ
Mc Pherson Airport,Mc Pherson,KS,US,67460,38.35240173,-97.69129944,Mc Pherson Airport,MPR
Donaldson Center Airport,Greenville,SC,US,29605,34.75830078,-82.37640381,Donaldson Center Airport,GYH
Perry Houston County Airport,Perry,GA,US,31069,32.51060104,-83.76730347,Perry Houston County Airport,PXE
Hartsville Regional Airport,Hartsville,SC,US,29550,34.40309906,-80.11920166,Hartsville Regional Airport,HVS
Horace Williams Airport,Chapel Hill,NC,US,27516,35.935001,-79.065902,Horace Williams Airport,IGX
Brunswick County Airport,Oak Island,NC,US,28461,33.9292984,-78.07499695,Brunswick County Airport,SUT
Chesterfield County Airport,Richmond,VA,US,23237,37.40650177,-77.52500153,Chesterfield County Airport,FCI
Henderson Oxford Airport,Oxford,NC,US,27565,36.36159897,-78.52919769,Henderson Oxford Airport,HNZ
Leesburg International Airport,Leesburg,FL,US,34788,28.82309914,-81.80870056,Leesburg International Airport,LEE
Chino Airport,Chino,CA,US,91708,33.97470093,-117.637001,Chino Airport,CNO
Madison County Airport,London,OH,US,43140,39.93270111,-83.46199799,Madison County Airport,UYF
Paso Robles Municipal Airport,Paso Robles,CA,US,93446,35.67290115,-120.6269989,Paso Robles Municipal Airport,PRB
Half Moon Bay Airport,Half Moon Bay,CA,US,94038,37.51340103,-122.5009995,Half Moon Bay Airport,HAF
General WM J Fox Airfield,Lancaster,CA,US,93536,34.74110031,-118.2190018,General WM J Fox Airfield,WJF
Person County Airport,Roxboro,NC,US,27583,36.28490067,-78.98419952,Person County Airport,TDF
Talladega Municipal Airport,Talladega,AL,US,35096,33.56990051,-86.05090332,Talladega Municipal Airport,ASN
Greenville Downtown Airport,Greenville,SC,US,29607,34.84790039,-82.34999847,Greenville Downtown Airport,GMU
Mankato Regional Airport,Mankato,MN,US,56001,44.22159958,-93.91870117,Mankato Regional Airport,MKT
Troy Municipal Airport,Troy,AL,US,36079,31.86039925,-86.01210022,Troy Municipal Airport,TOI
Merkel Field Sylacauga Municipal Airport,Sylacauga,AL,US,35151,33.17179871,-86.30549622,Merkel Field Sylacauga Municipal Airport,SCD
Enterprise Municipal Airport,Enterprise,AL,US,36330,31.29969978,-85.89990234,Enterprise Municipal Airport,EDN
Ryan Field,Tucson,AZ,US,85735,32.14220047,-111.1750031,Ryan Field,\N
Thomas C Russell Field,Alexander City,AL,US,35010,32.91469955,-85.96299744,Thomas C Russell Field,ALX
Meriden Markham Municipal Airport,Meriden,CT,US,06492,41.50870132,-72.82949829,Meriden Markham Municipal Airport,\N
Ridgely Airpark,Ridgely,MD,US,21660,38.9701004,-75.86630249,Ridgely Airpark,\N
New Castle Henry Co. Municipal Airport,New Castle,IN,US,47362,39.87590027,-85.32649994,New Castle Henry Co. Municipal Airport,UWL
Scott City Municipal Airport,Scott City,KS,US,67871,38.47430038,-100.8850021,Scott City Municipal Airport,TQK
Brewster Field,Holdredge,NE,US,68949,40.452099,-99.336502,Brewster Field,HDE
Pratt Regional Airport,Pratt,KS,US,67124,37.70159912,-98.74690247,Pratt Regional Airport,PTT
Wahoo Municipal Airport,Wahoo,NE,US,68066,41.24129868,-96.59400177,Wahoo Municipal Airport,AHQ
Jim Kelly Field,Lexington,NE,US,68850,40.79100037,-99.77729797,Jim Kelly Field,LXN
Sublette Municipal Airport,Sublette,KS,US,67877,37.49140167,-100.8300018,Sublette Municipal Airport,19S
Council Bluffs Municipal Airport,Council Bluffs,IA,US,51503,41.25920105,-95.76059723,Council Bluffs Municipal Airport,CBF
Kokomo Municipal Airport,Kokomo,IN,US,46901,40.52819824,-86.05899811,Kokomo Municipal Airport,OKK
Neodesha Municipal Airport,Neodesha,KS,US,66757,37.4353981,-95.64610291,Neodesha Municipal Airport,2K7
King Ranch Airport,Sutton,AK,US,99645,61.79560089,-148.3549957,King Ranch Airport,\N
Elkhart Morton County Airport,Elkhart,KS,US,67950,37.000702,-101.879997,Elkhart Morton County Airport,EHA
Front Range Airport,Denver,CO,US,80137,39.78530121,-104.5429993,Front Range Airport,FTG
Galesburg Municipal Airport,Galesburg,IL,US,61401,40.93799973,-90.43109894,Galesburg Municipal Airport,GBG
Guymon Municipal Airport,Guymon,OK,US,73942,36.68510056,-101.5080032,Guymon Municipal Airport,GUY
Meade Municipal Airport,Meade,KS,US,67864,37.27690125,-100.3560028,Meade Municipal Airport,MEJ
Turkey Mountain Estates Airport,Shell Knob,MO,US,65747,36.59170151,-93.66690063,Turkey Mountain Estates Airport,\N
Ulysses Airport,Ulysses,KS,US,67880,37.60400009,-101.3740005,Ulysses Airport,ULS
Flagler Aerial Spraying Inc Airport,Flagler,CO,US,80815,39.27999878,-103.0670013,Flagler Aerial Spraying Inc Airport,\N
Independence Municipal Airport,Independence,KS,US,67301,37.15840149,-95.77839661,Independence Municipal Airport,IDP
Augusta Municipal Airport,Augusta,KS,US,67010,37.67160034,-97.07790375,Augusta Municipal Airport,3AU
Larned Pawnee County Airport,Larned,KS,US,67550,38.20859909,-99.08599854,Larned Pawnee County Airport,LQR
Lampasas Airport,Lampasas,TX,US,76550,31.10619926,-98.19589996,Lampasas Airport,LZZ
Bay City Municipal Airport,Bay City,TX,US,77414,28.97330093,-95.8635025,Bay City Municipal Airport,BYY
Cox Field,Paris,TX,US,75462,33.63660049,-95.45079803,Cox Field,PRX
Coffeyville Municipal Airport,Coffeyville,KS,US,67337,37.09400177,-95.57189941,Coffeyville Municipal Airport,CFV
The Farm Airport,Summit,SC,US,29070,33.93579865,-81.42970276,The Farm Airport,\N
GreeleyðððWeld County Airport,Greeley,CO,US,80631,40.43740082,-104.6330032,GreeleyðððWeld County Airport,GXY
General Dewitt Spain Airport,Memphis,TN,US,38127,35.20069885,-90.05400085,General Dewitt Spain Airport,\N
Oryol Yuzhny Airport,Oakley,Orlovskaya,US,,52.93470001,36.00220108,Oryol Yuzhny Airport,OEL
Fremont Municipal Airport,Fremont,NE,US,68025,41.44910049,-96.52020264,Fremont Municipal Airport,FET
La Grande/Union County Airport,La Grande,OR,US,97850,45.29019928,-118.0070038,La Grande/Union County Airport,LGD
Pocono Mountains Municipal Airport,Mount Pocono,PA,US,18466,41.13750076,-75.37889862,Pocono Mountains Municipal Airport,MPO
Quakertown Airport,Quakertown,PA,US,18951,40.43519974,-75.38189697,Quakertown Airport,UKT
Banning Municipal Airport,Banning,CA,US,92220,33.92309952,-116.8509979,Banning Municipal Airport,BNG
Karl Stefan Memorial Airport,Norfolk  Nebraska,NE,US,68702,41.98550034,-97.43509674,Karl Stefan Memorial Airport,OFK
Arlington Municipal Airport,Arlington,WA,US,98223,48.16070175,-122.1589966,Arlington Municipal Airport,AWO
Peter O Knight Airport,Tampa,FL,US,33606,27.91559982,-82.44930267,Peter O Knight Airport,TPF
Montauk Airport,Montauk,NY,US,11954,41.07649994,-71.92079926,Montauk Airport,MTP
Porter County Municipal Airport,Valparaiso IN,IN,US,46383,41.45399857,-87.00710297,Porter County Municipal Airport,VPZ
Mason County Airport,Ludington,MI,US,49431,43.96250153,-86.40789795,Mason County Airport,LDM
Reid-Hillview Airport of Santa Clara County,San Jose,CA,US,95122,37.332901,-121.8190002,Reid-Hillview Airport of Santa Clara County,RHV
Camarillo Airport,Camarillo - CA,CA,US,93010,34.21369934,-119.0940018,Camarillo Airport,\N
Watsonville Municipal Airport,Watsonville,CA,US,95076,36.93569946,-121.7900009,Watsonville Municipal Airport,WVI
Williamsburg Jamestown Airport,Williamsburg,VA,US,23185,37.23920059,-76.7161026,Williamsburg Jamestown Airport,JGG
Union County Airport,Marysville,OH,US,43040,40.22470093,-83.35160065,Union County Airport,MRT
St Louis Regional Airport,Alton/St Louis,IL,US,62010,38.89030075,-90.04599762,St Louis Regional Airport,ALN
Chandler Field,Alexandria,MN,US,56308,45.86629868,-95.3946991,Chandler Field,AXN
Columbus Municipal Airport,Columbus,IN,US,47203,39.26190186,-85.89630127,Columbus Municipal Airport,CLU
Curtis Field,Brady,TX,US,76825,31.17930031,-99.32389832,Curtis Field,BBD
Eastern Sierra Regional Airport,Bishop,CA,US,93514,37.37310028,-118.3639984,Eastern Sierra Regional Airport,BIH
Baker City Municipal Airport,Baker City,OR,US,97814,44.83729935,-117.8089981,Baker City Municipal Airport,BKE
Miley Memorial Field,Big Piney,WY,US,83113,42.58509827,-110.1110001,Miley Memorial Field,BPI
Ozark Regional Airport,Mountain Home,AR,US,72651,36.3689003,-92.47049713,Ozark Regional Airport,WMH
W K Kellogg Airport,Battle Creek,MI,US,49037,42.30730057,-85.25150299,W K Kellogg Airport,BTL
Burley Municipal Airport,Burley,ID,US,83318,42.54259872,-113.7720032,Burley Municipal Airport,BYI
Northeast Iowa Regional Airport,Charles City,IA,US,50616,43.07260132,-92.6108017,Northeast Iowa Regional Airport,CCY
Chanute Martin Johnson Airport,Chanute,KS,US,66720,37.66880035,-95.48509979,Chanute Martin Johnson Airport,CNU
Jacksonville Executive at Craig Airport,Jacksonville,FL,US,32225,30.3362999,-81.51439667,Jacksonville Executive at Craig Airport,CRG
Crossville Memorial Whitson Field,Crossville,TN,US,38555,35.95130157,-85.08499908,Crossville Memorial Whitson Field,CSV
Davison Army Air Field,Fort Belvoir,VA,US,22060,38.71500015,-77.18099976,Davison Army Air Field,DAA
Barstow Daggett Airport,Daggett,CA,US,92365,34.85369873,-116.7870026,Barstow Daggett Airport,DAG
Deming Municipal Airport,Deming,NM,US,88030,32.26229858,-107.7210007,Deming Municipal Airport,DMN
Desert Rock Airport,Mercury,NV,US,89060,36.6194,-116.032997,Desert Rock Airport,DRA
Needles Airport,Needles,CA,US,92363,34.7663002,-114.6230011,Needles Airport,EED
Duke Field,Crestview,FL,US,32542,30.65040016,-86.52290344,Duke Field,EGI
Murray Field,Eureka,CA,US,95501,40.80339813,-124.112999,Murray Field,EKA
San Marcos Municipal Airport,San Marcos,TX,US,78666,29.8927002,-97.86299896,San Marcos Municipal Airport,HYI
Sawyer County Airport,Hayward,WI,US,54843,46.02519989,-91.44429779,Sawyer County Airport,HYR
Kimble County Airport,Junction,TX,US,76849,30.51129913,-99.7634964,Kimble County Airport,JCT
Monticello Municipal Ellis Field,Monticello,AR,US,71655,33.6385994,-91.75099945,Monticello Municipal Ellis Field,LLQ
Derby Field,Lovelock,NV,US,89419,40.06639862,-118.5650024,Derby Field,LOL
Mobridge Municipal Airport,Mobridge,SD,US,57601,45.54650116,-100.4079971,Mobridge Municipal Airport,MBG
Mc Comb/Pike County Airport/John E Lewis Field,Mc Comb,MS,US,39648,31.17849922,-90.47190094,Mc Comb/Pike County Airport/John E Lewis Field,MCB
Southern Illinois Airport,Carbondale/Murphysboro,IL,US,62966,37.77809906,-89.2519989,Southern Illinois Airport,MDH
Mc Entire Joint National Guard Base,Eastover,SC,US,29061,33.92079926,-80.80130005,Mc Entire Joint National Guard Base,MMT
Brunswick Executive Airport,Brunswick,ME,US,04011,43.89220047,-69.93859863,Brunswick Executive Airport,NHZ
Naval Station Mayport (Admiral David L. Mcdonald Field),Mayport,FL,US,32233,30.39109993,-81.42469788,Naval Station Mayport (Admiral David L. Mcdonald Field),NRB
Orangeburg Municipal Airport,Orangeburg,SC,US,29115,33.45679855,-80.85949707,Orangeburg Municipal Airport,OGB
Columbus Municipal Airport,Columbus,NE,US,68601,41.44800186,-97.34259796,Columbus Municipal Airport,OLU
Ottumwa Regional Airport,Ottumwa,IA,US,52501,41.10660172,-92.44789886,Ottumwa Regional Airport,OTM
Cairns AAF (Fort Rucker) Air Field,Fort Rucker/Ozark,AL,US,36322,31.27569962,-85.71340179,Cairns AAF (Fort Rucker) Air Field,OZR
Ralph Wenz Field,Pinedale,WY,US,82941,42.79550171,-109.8069992,Ralph Wenz Field,PWY
Dutchess County Airport,Poughkeepsie,NY,US,12590,41.62659836,-73.88420105,Dutchess County Airport,POU
New Richmond Regional Airport,New Richmond,WI,US,54017,45.14830017,-92.5381012,New Richmond Regional Airport,RNH
Russell Municipal Airport,Russell,KS,US,67665,38.87210083,-98.8117981,Russell Municipal Airport,RSL
Redwood Falls Municipal Airport,Redwood Falls,MN,US,56283,44.54719925,-95.08229828,Redwood Falls Municipal Airport,RWF
Salinas Municipal Airport,Salinas,CA,US,93905,36.66279984,-121.6060028,Salinas Municipal Airport,SNS
Sonora Municipal Airport,Sonora,TX,US,76950,30.58569908,-100.6490021,Sonora Municipal Airport,SOA
Saline County Regional Airport,Benton,AR,US,72022,34.59059906,-92.47940063,Saline County Regional Airport,SUZ
Tonopah Airport,Tonopah,NV,US,89049,38.06019974,-117.086998,Tonopah Airport,TPH
Aurora State Airport,Aurora,OR,US,97002,45.24710083,-122.7699966,Aurora State Airport,UAO
Ukiah Municipal Airport,Ukiah,CA,US,95482,39.12599945,-123.2009964,Ukiah Municipal Airport,UKI
University Oxford Airport,Oxford,MS,US,38655,34.38430023,-89.53679657,University Oxford Airport,UOX
Huntsville Regional Airport,Huntsville,TX,US,77320,30.74690056,-95.58719635,Huntsville Regional Airport,HTV
Miller Field,Valentine,NE,US,69201,42.85779953,-100.5479965,Miller Field,VTN
Winnemucca Municipal Airport,Winnemucca,NV,US,89445,40.89659882,-117.8059998,Winnemucca Municipal Airport,WMC
West Woodward Airport,Woodward,OK,US,73801,36.438,-99.5226667,West Woodward Airport,WWR
Cape Canaveral AFS Skid Strip,Cocoa Beach,FL,US,32920,28.46759987,-80.56659698,Cape Canaveral AFS Skid Strip,XMR
Homey (Area 51) Airport,Groom Lake,Nevada,US,,37.23500061,-115.810997,Homey (Area 51) Airport,\N
Zanesville Municipal Airport,Zanesville,OH,US,43701,39.94440079,-81.89209747,Zanesville Municipal Airport,ZZV
Nenana Municipal Airport,Nenana,AK,US,99760,64.54730225,-149.0740051,Nenana Municipal Airport,ENN
Wasilla Airport,Wasilla,AK,US,99654,61.57170105,-149.5399933,Wasilla Airport,WWA
Austin Straubel International Airport,Green Bay,IL,US,54313,44.48509979,-88.12960052,Austin Straubel International Airport,GRB
San Diego International Airport,San Diego,CA,US,92101,32.73360062,-117.1900024,San Diego International Airport,SAN
Columbus Air Force Base,Colombus,MS,US,39705,33.64379883,-88.44380188,Columbus Air Force Base,CBM